<gpx xmlns="http://www.topografix.com/GPX/1/1" xmlns:xsi="http://www.w3.org/2001/XMLSchema-instance" xsi:schemaLocation="http://www.topografix.com/GPX/1/1 http://www.topografix.com/GPX/1/1/gpx.xsd" version="1.1" creator="togpx"><metadata/><wpt lat="40.79459456220258" lon="-77.86937641110387"><name></name><desc>label=White Course Drive, State College,PA,USA</desc></wpt><wpt lat="40.79342493534341" lon="-77.87510778576251"><name></name><desc>label=West Park Avenue, State College,PA,USA</desc></wpt><wpt lat="40.79210908049706" lon="-77.88065885862679"><name></name><desc>label=740 Hillcrest Avenue, State College,PA,USA</desc></wpt><wpt lat="40.79785966146252" lon="-77.88482719819575"><name></name><desc>label=1051 Teaberry Lane, State College,PA,USA</desc></wpt><wpt lat="40.79850941330071" lon="-77.88673618101991"><name></name><desc>label=Blue Course Drive near Teaberry Lane, Ferguson,PA,USA</desc></wpt><wpt lat="40.796706336286746" lon="-77.88783088099099"><name></name><desc>label=1120 Teaberry Lane, Ferguson,PA,USA</desc></wpt><wpt lat="40.79335995546927" lon="-77.8971004975211"><name></name><desc>label=Circleville Road at West Park Hills Avenue, Park Forest Village,PA,USA</desc></wpt><wpt lat="40.792190306860086" lon="-77.89800193170505"><name></name><desc>label=392 Havershire Boulevard, State College,PA,USA</desc></wpt><wpt lat="40.78843754513683" lon="-77.90407465671761"><name></name><desc>label=851 Science Park Road, State College,PA,USA</desc></wpt><wpt lat="40.78567563696274" lon="-77.90916005164081"><name></name><desc>label=1381 Sconsett Way, State College,PA,USA</desc></wpt><wpt lat="40.78530195821159" lon="-77.91121950718956"><name></name><desc>label=2409 Chatham Court, State College,PA,USA</desc></wpt><wpt lat="40.78505825354546" lon="-77.91425137487127"><name></name><desc>label=SGL 176 Greenbriar Parking Lot, Ferguson,PA,USA</desc></wpt><trk><name></name><desc>ascent=48.4
descent=37
transfers=0
fare=0
opacity=0.9</desc><trkseg><trkpt lat="40.794605" lon="-77.869354"><ele>368</ele></trkpt><trkpt lat="40.794646" lon="-77.869386"><ele>368</ele></trkpt><trkpt lat="40.794813" lon="-77.869571"><ele>368</ele></trkpt><trkpt lat="40.795072" lon="-77.87003"><ele>368</ele></trkpt><trkpt lat="40.795121" lon="-77.870083"><ele>368</ele></trkpt><trkpt lat="40.795311" lon="-77.870209"><ele>368</ele></trkpt><trkpt lat="40.795368" lon="-77.870269"><ele>368</ele></trkpt><trkpt lat="40.795499" lon="-77.870532"><ele>368</ele></trkpt><trkpt lat="40.795599" lon="-77.870752"><ele>368</ele></trkpt><trkpt lat="40.795962" lon="-77.871517"><ele>369.7</ele></trkpt><trkpt lat="40.796211" lon="-77.871794"><ele>370.9</ele></trkpt><trkpt lat="40.796523" lon="-77.872252"><ele>373</ele></trkpt><trkpt lat="40.796532" lon="-77.872321"><ele>373.5</ele></trkpt><trkpt lat="40.796514" lon="-77.872404"><ele>373.9</ele></trkpt><trkpt lat="40.796453" lon="-77.872622"><ele>374.4</ele></trkpt><trkpt lat="40.796393" lon="-77.872724"><ele>374.8</ele></trkpt><trkpt lat="40.795872" lon="-77.873137"><ele>376.5</ele></trkpt><trkpt lat="40.795599" lon="-77.873387"><ele>376.6</ele></trkpt><trkpt lat="40.795479" lon="-77.87347"><ele>376.6</ele></trkpt><trkpt lat="40.795289" lon="-77.873663"><ele>376.6</ele></trkpt><trkpt lat="40.794968" lon="-77.873944"><ele>376.4</ele></trkpt><trkpt lat="40.794331" lon="-77.874406"><ele>375.9</ele></trkpt><trkpt lat="40.793858" lon="-77.874848"><ele>375.5</ele></trkpt><trkpt lat="40.793502" lon="-77.875135"><ele>375.1</ele></trkpt><trkpt lat="40.793458" lon="-77.875173"><ele>374.9</ele></trkpt><trkpt lat="40.793006" lon="-77.875577"><ele>371.8</ele></trkpt><trkpt lat="40.792622" lon="-77.875876"><ele>371.4</ele></trkpt><trkpt lat="40.792334" lon="-77.876174"><ele>371</ele></trkpt><trkpt lat="40.79225" lon="-77.87624"><ele>371</ele></trkpt><trkpt lat="40.792277" lon="-77.87631"><ele>370.9</ele></trkpt><trkpt lat="40.791464" lon="-77.876994"><ele>366.6</ele></trkpt><trkpt lat="40.791434" lon="-77.877131"><ele>365.8</ele></trkpt><trkpt lat="40.791427" lon="-77.877761"><ele>361.8</ele></trkpt><trkpt lat="40.791403" lon="-77.879168"><ele>354.2</ele></trkpt><trkpt lat="40.791411" lon="-77.879532"><ele>353.4</ele></trkpt><trkpt lat="40.791474" lon="-77.879542"><ele>353.3</ele></trkpt><trkpt lat="40.791494" lon="-77.879564"><ele>353.2</ele></trkpt><trkpt lat="40.791587" lon="-77.879732"><ele>353.1</ele></trkpt><trkpt lat="40.792128" lon="-77.880639"><ele>353</ele></trkpt><trkpt lat="40.792218" lon="-77.880791"><ele>353</ele></trkpt><trkpt lat="40.792389" lon="-77.881023"><ele>353</ele></trkpt><trkpt lat="40.792656" lon="-77.881458"><ele>352.7</ele></trkpt><trkpt lat="40.792738" lon="-77.88156"><ele>352.6</ele></trkpt><trkpt lat="40.793794" lon="-77.8826"><ele>351.8</ele></trkpt><trkpt lat="40.794136" lon="-77.882914"><ele>351.7</ele></trkpt><trkpt lat="40.794453" lon="-77.883133"><ele>351.8</ele></trkpt><trkpt lat="40.794767" lon="-77.883303"><ele>352</ele></trkpt><trkpt lat="40.795081" lon="-77.883404"><ele>352.2</ele></trkpt><trkpt lat="40.795219" lon="-77.883424"><ele>352.2</ele></trkpt><trkpt lat="40.795428" lon="-77.883438"><ele>352.3</ele></trkpt><trkpt lat="40.795683" lon="-77.883396"><ele>352.3</ele></trkpt><trkpt lat="40.795883" lon="-77.883335"><ele>352.4</ele></trkpt><trkpt lat="40.796441" lon="-77.883114"><ele>351.8</ele></trkpt><trkpt lat="40.796575" lon="-77.883116"><ele>351.6</ele></trkpt><trkpt lat="40.79669" lon="-77.883183"><ele>351.4</ele></trkpt><trkpt lat="40.796731" lon="-77.883226"><ele>351.2</ele></trkpt><trkpt lat="40.796822" lon="-77.883376"><ele>350.9</ele></trkpt><trkpt lat="40.796973" lon="-77.883967"><ele>349.3</ele></trkpt><trkpt lat="40.797067" lon="-77.88412"><ele>348.8</ele></trkpt><trkpt lat="40.797171" lon="-77.884234"><ele>348.3</ele></trkpt><trkpt lat="40.797457" lon="-77.884345"><ele>346.7</ele></trkpt><trkpt lat="40.797532" lon="-77.884401"><ele>346.2</ele></trkpt><trkpt lat="40.797614" lon="-77.884479"><ele>345.7</ele></trkpt><trkpt lat="40.797869" lon="-77.884816"><ele>344.1</ele></trkpt><trkpt lat="40.797973" lon="-77.884953"><ele>341.2</ele></trkpt><trkpt lat="40.79809" lon="-77.885082"><ele>340.5</ele></trkpt><trkpt lat="40.798112" lon="-77.885105"><ele>340.1</ele></trkpt><trkpt lat="40.798273" lon="-77.885236"><ele>339.8</ele></trkpt><trkpt lat="40.798437" lon="-77.885338"><ele>339.6</ele></trkpt><trkpt lat="40.798601" lon="-77.88548"><ele>339.6</ele></trkpt><trkpt lat="40.798876" lon="-77.885811"><ele>339.6</ele></trkpt><trkpt lat="40.798935" lon="-77.885919"><ele>339.6</ele></trkpt><trkpt lat="40.798959" lon="-77.886069"><ele>339.6</ele></trkpt><trkpt lat="40.798923" lon="-77.88632"><ele>339.7</ele></trkpt><trkpt lat="40.798903" lon="-77.886387"><ele>339.7</ele></trkpt><trkpt lat="40.798833" lon="-77.886507"><ele>339.7</ele></trkpt><trkpt lat="40.798618" lon="-77.8867"><ele>339.7</ele></trkpt><trkpt lat="40.798526" lon="-77.886772"><ele>339.9</ele></trkpt><trkpt lat="40.798232" lon="-77.887005"><ele>341.5</ele></trkpt><trkpt lat="40.797888" lon="-77.887243"><ele>341.4</ele></trkpt><trkpt lat="40.797708" lon="-77.88733"><ele>342.5</ele></trkpt><trkpt lat="40.797684" lon="-77.887358"><ele>343.1</ele></trkpt><trkpt lat="40.797653" lon="-77.887395"><ele>343.6</ele></trkpt><trkpt lat="40.797592" lon="-77.887452"><ele>344</ele></trkpt><trkpt lat="40.797516" lon="-77.887526"><ele>344.4</ele></trkpt><trkpt lat="40.797471" lon="-77.887552"><ele>344.7</ele></trkpt><trkpt lat="40.797433" lon="-77.887578"><ele>345</ele></trkpt><trkpt lat="40.797328" lon="-77.887648"><ele>345.1</ele></trkpt><trkpt lat="40.797114" lon="-77.887719"><ele>345.4</ele></trkpt><trkpt lat="40.796704" lon="-77.887813"><ele>346.5</ele></trkpt><trkpt lat="40.796608" lon="-77.887835"><ele>348</ele></trkpt><trkpt lat="40.796511" lon="-77.88796"><ele>348</ele></trkpt><trkpt lat="40.796467" lon="-77.888119"><ele>348</ele></trkpt><trkpt lat="40.796446" lon="-77.888657"><ele>348</ele></trkpt><trkpt lat="40.796405" lon="-77.889053"><ele>348</ele></trkpt><trkpt lat="40.796364" lon="-77.889271"><ele>348</ele></trkpt><trkpt lat="40.796284" lon="-77.889595"><ele>348.3</ele></trkpt><trkpt lat="40.796239" lon="-77.889873"><ele>348.7</ele></trkpt><trkpt lat="40.796168" lon="-77.890805"><ele>350.1</ele></trkpt><trkpt lat="40.795841" lon="-77.892105"><ele>352.9</ele></trkpt><trkpt lat="40.795766" lon="-77.892276"><ele>353</ele></trkpt><trkpt lat="40.795709" lon="-77.892354"><ele>353.1</ele></trkpt><trkpt lat="40.795611" lon="-77.892401"><ele>353.2</ele></trkpt><trkpt lat="40.795368" lon="-77.892471"><ele>353.4</ele></trkpt><trkpt lat="40.795326" lon="-77.892501"><ele>353.5</ele></trkpt><trkpt lat="40.795283" lon="-77.892552"><ele>353.5</ele></trkpt><trkpt lat="40.795016" lon="-77.893042"><ele>353.7</ele></trkpt><trkpt lat="40.794945" lon="-77.893223"><ele>353.8</ele></trkpt><trkpt lat="40.794935" lon="-77.893368"><ele>353.8</ele></trkpt><trkpt lat="40.794943" lon="-77.893437"><ele>353.8</ele></trkpt><trkpt lat="40.795047" lon="-77.893725"><ele>353.9</ele></trkpt><trkpt lat="40.795088" lon="-77.89389"><ele>353.9</ele></trkpt><trkpt lat="40.795077" lon="-77.894049"><ele>353.9</ele></trkpt><trkpt lat="40.795037" lon="-77.894164"><ele>353.9</ele></trkpt><trkpt lat="40.793591" lon="-77.897038"><ele>359.4</ele></trkpt><trkpt lat="40.793525" lon="-77.897095"><ele>359.7</ele></trkpt><trkpt lat="40.793409" lon="-77.897143"><ele>359.9</ele></trkpt><trkpt lat="40.793358" lon="-77.897137"><ele>360.1</ele></trkpt><trkpt lat="40.793329" lon="-77.897134"><ele>362</ele></trkpt><trkpt lat="40.793238" lon="-77.897091"><ele>362</ele></trkpt><trkpt lat="40.79306" lon="-77.896976"><ele>362</ele></trkpt><trkpt lat="40.792965" lon="-77.896953"><ele>362</ele></trkpt><trkpt lat="40.792916" lon="-77.896967"><ele>362</ele></trkpt><trkpt lat="40.792834" lon="-77.896992"><ele>362.2</ele></trkpt><trkpt lat="40.792729" lon="-77.897119"><ele>362.5</ele></trkpt><trkpt lat="40.792492" lon="-77.897665"><ele>363.4</ele></trkpt><trkpt lat="40.79242" lon="-77.897791"><ele>363.6</ele></trkpt><trkpt lat="40.792213" lon="-77.898036"><ele>364</ele></trkpt><trkpt lat="40.792007" lon="-77.89828"><ele>366</ele></trkpt><trkpt lat="40.791863" lon="-77.898564"><ele>366.1</ele></trkpt><trkpt lat="40.791778" lon="-77.898696"><ele>366.2</ele></trkpt><trkpt lat="40.791728" lon="-77.898751"><ele>366.2</ele></trkpt><trkpt lat="40.791582" lon="-77.898857"><ele>366.3</ele></trkpt><trkpt lat="40.791574" lon="-77.898862"><ele>366.4</ele></trkpt><trkpt lat="40.791544" lon="-77.898881"><ele>366.4</ele></trkpt><trkpt lat="40.791507" lon="-77.898901"><ele>366.1</ele></trkpt><trkpt lat="40.79147" lon="-77.898919"><ele>365.7</ele></trkpt><trkpt lat="40.791429" lon="-77.898938"><ele>365.5</ele></trkpt><trkpt lat="40.79119" lon="-77.899024"><ele>365</ele></trkpt><trkpt lat="40.790752" lon="-77.899043"><ele>364.5</ele></trkpt><trkpt lat="40.790621" lon="-77.899115"><ele>364.3</ele></trkpt><trkpt lat="40.790502" lon="-77.899223"><ele>364.1</ele></trkpt><trkpt lat="40.790385" lon="-77.899362"><ele>363.9</ele></trkpt><trkpt lat="40.790089" lon="-77.8998"><ele>363.2</ele></trkpt><trkpt lat="40.789948" lon="-77.90009"><ele>362.9</ele></trkpt><trkpt lat="40.789881" lon="-77.900364"><ele>362.5</ele></trkpt><trkpt lat="40.789792" lon="-77.901002"><ele>363</ele></trkpt><trkpt lat="40.78978" lon="-77.901071"><ele>363.2</ele></trkpt><trkpt lat="40.789764" lon="-77.901151"><ele>363.3</ele></trkpt><trkpt lat="40.789754" lon="-77.901202"><ele>363.5</ele></trkpt><trkpt lat="40.78962" lon="-77.902081"><ele>364.5</ele></trkpt><trkpt lat="40.789544" lon="-77.902399"><ele>364.8</ele></trkpt><trkpt lat="40.789489" lon="-77.902521"><ele>364.9</ele></trkpt><trkpt lat="40.789397" lon="-77.902668"><ele>365</ele></trkpt><trkpt lat="40.788934" lon="-77.903269"><ele>365.5</ele></trkpt><trkpt lat="40.788754" lon="-77.903566"><ele>365.6</ele></trkpt><trkpt lat="40.788578" lon="-77.903897"><ele>365.7</ele></trkpt><trkpt lat="40.788489" lon="-77.904112"><ele>365.8</ele></trkpt><trkpt lat="40.788481" lon="-77.904133"><ele>366.5</ele></trkpt><trkpt lat="40.788298" lon="-77.904683"><ele>366.5</ele></trkpt><trkpt lat="40.788254" lon="-77.904951"><ele>366.5</ele></trkpt><trkpt lat="40.788217" lon="-77.905332"><ele>366.5</ele></trkpt><trkpt lat="40.788197" lon="-77.905397"><ele>366.6</ele></trkpt><trkpt lat="40.78818" lon="-77.905436"><ele>366.6</ele></trkpt><trkpt lat="40.788145" lon="-77.905522"><ele>366.6</ele></trkpt><trkpt lat="40.788117" lon="-77.905591"><ele>366.7</ele></trkpt><trkpt lat="40.788095" lon="-77.905649"><ele>366.7</ele></trkpt><trkpt lat="40.787085" lon="-77.906795"><ele>369.6</ele></trkpt><trkpt lat="40.786781" lon="-77.907201"><ele>371.2</ele></trkpt><trkpt lat="40.786603" lon="-77.907363"><ele>372.1</ele></trkpt><trkpt lat="40.786406" lon="-77.907477"><ele>372.9</ele></trkpt><trkpt lat="40.786332" lon="-77.907516"><ele>373.3</ele></trkpt><trkpt lat="40.786238" lon="-77.907565"><ele>373.6</ele></trkpt><trkpt lat="40.786012" lon="-77.907684"><ele>374.3</ele></trkpt><trkpt lat="40.785902" lon="-77.907806"><ele>374.7</ele></trkpt><trkpt lat="40.785884" lon="-77.907847"><ele>375</ele></trkpt><trkpt lat="40.785856" lon="-77.907934"><ele>375.3</ele></trkpt><trkpt lat="40.785839" lon="-77.908075"><ele>375.6</ele></trkpt><trkpt lat="40.785834" lon="-77.908884"><ele>377</ele></trkpt><trkpt lat="40.785802" lon="-77.909069"><ele>377.2</ele></trkpt><trkpt lat="40.785747" lon="-77.909209"><ele>377.3</ele></trkpt><trkpt lat="40.785736" lon="-77.909238"><ele>378.5</ele></trkpt><trkpt lat="40.78539" lon="-77.909649"><ele>378.5</ele></trkpt><trkpt lat="40.78523" lon="-77.909906"><ele>378.5</ele></trkpt><trkpt lat="40.785091" lon="-77.910238"><ele>378.5</ele></trkpt><trkpt lat="40.784954" lon="-77.910825"><ele>378.2</ele></trkpt><trkpt lat="40.784939" lon="-77.910893"><ele>378.1</ele></trkpt><trkpt lat="40.784949" lon="-77.910948"><ele>378.1</ele></trkpt><trkpt lat="40.784971" lon="-77.911077"><ele>378</ele></trkpt><trkpt lat="40.785308" lon="-77.911186"><ele>378</ele></trkpt><trkpt lat="40.785323" lon="-77.911191"><ele>379.3</ele></trkpt><trkpt lat="40.785713" lon="-77.91128"><ele>380.6</ele></trkpt><trkpt lat="40.785882" lon="-77.911333"><ele>380.8</ele></trkpt><trkpt lat="40.786065" lon="-77.91143"><ele>381.1</ele></trkpt><trkpt lat="40.786248" lon="-77.911553"><ele>381.3</ele></trkpt><trkpt lat="40.786319" lon="-77.911681"><ele>381.3</ele></trkpt><trkpt lat="40.786352" lon="-77.911817"><ele>381.4</ele></trkpt><trkpt lat="40.786339" lon="-77.911923"><ele>381.4</ele></trkpt><trkpt lat="40.786313" lon="-77.912023"><ele>381.5</ele></trkpt><trkpt lat="40.786128" lon="-77.912379"><ele>381.6</ele></trkpt><trkpt lat="40.785386" lon="-77.913578"><ele>383</ele></trkpt><trkpt lat="40.785042" lon="-77.914237"><ele>383.4</ele></trkpt></trkseg></trk></gpx>