<gpx xmlns="http://www.topografix.com/GPX/1/1" xmlns:xsi="http://www.w3.org/2001/XMLSchema-instance" xsi:schemaLocation="http://www.topografix.com/GPX/1/1 http://www.topografix.com/GPX/1/1/gpx.xsd" version="1.1" creator="togpx"><metadata/><trk><name></name><desc>ascent=37.2
descent=43.5
transfers=0
fare=0
opacity=0.9</desc><trkseg><trkpt lat="40.778852" lon="-77.793453"><ele>330.5</ele></trkpt><trkpt lat="40.779053" lon="-77.794042"><ele>329.8</ele></trkpt><trkpt lat="40.779257" lon="-77.79464"><ele>329.4</ele></trkpt><trkpt lat="40.779665" lon="-77.795842"><ele>329.1</ele></trkpt><trkpt lat="40.779777" lon="-77.796166"><ele>328.9</ele></trkpt><trkpt lat="40.779944" lon="-77.796641"><ele>328.7</ele></trkpt><trkpt lat="40.779986" lon="-77.796721"><ele>328.7</ele></trkpt><trkpt lat="40.780135" lon="-77.796873"><ele>328.6</ele></trkpt><trkpt lat="40.780169" lon="-77.796942"><ele>328.5</ele></trkpt><trkpt lat="40.780205" lon="-77.797031"><ele>328.5</ele></trkpt><trkpt lat="40.780217" lon="-77.797147"><ele>328.4</ele></trkpt><trkpt lat="40.780159" lon="-77.797233"><ele>328.4</ele></trkpt><trkpt lat="40.780167" lon="-77.797368"><ele>328.4</ele></trkpt><trkpt lat="40.780708" lon="-77.798976"><ele>330</ele></trkpt><trkpt lat="40.780746" lon="-77.799087"><ele>330.2</ele></trkpt><trkpt lat="40.780828" lon="-77.799319"><ele>330.5</ele></trkpt><trkpt lat="40.781111" lon="-77.799941"><ele>331</ele></trkpt><trkpt lat="40.7812" lon="-77.800288"><ele>331</ele></trkpt><trkpt lat="40.781295" lon="-77.800411"><ele>331</ele></trkpt><trkpt lat="40.781261" lon="-77.8005"><ele>330.9</ele></trkpt><trkpt lat="40.781205" lon="-77.800669"><ele>330.9</ele></trkpt><trkpt lat="40.781227" lon="-77.800905"><ele>330.8</ele></trkpt><trkpt lat="40.781252" lon="-77.801029"><ele>330.8</ele></trkpt><trkpt lat="40.781292" lon="-77.801239"><ele>330.7</ele></trkpt><trkpt lat="40.781399" lon="-77.801357"><ele>330.6</ele></trkpt><trkpt lat="40.781437" lon="-77.801496"><ele>330.6</ele></trkpt><trkpt lat="40.781454" lon="-77.801781"><ele>330.6</ele></trkpt><trkpt lat="40.781453" lon="-77.802278"><ele>331.5</ele></trkpt><trkpt lat="40.782" lon="-77.80671"><ele>345.4</ele></trkpt><trkpt lat="40.782244" lon="-77.808687"><ele>347.5</ele></trkpt><trkpt lat="40.78228" lon="-77.809069"><ele>347.5</ele></trkpt><trkpt lat="40.7825" lon="-77.810849"><ele>348.4</ele></trkpt><trkpt lat="40.782562" lon="-77.811318"><ele>349</ele></trkpt><trkpt lat="40.782685" lon="-77.812341"><ele>349.8</ele></trkpt><trkpt lat="40.78344" lon="-77.818622"><ele>363.1</ele></trkpt><trkpt lat="40.783505" lon="-77.818734"><ele>363.4</ele></trkpt><trkpt lat="40.78359" lon="-77.81878"><ele>363.7</ele></trkpt><trkpt lat="40.783608" lon="-77.818801"><ele>363.9</ele></trkpt><trkpt lat="40.78361" lon="-77.818834"><ele>364.2</ele></trkpt><trkpt lat="40.783612" lon="-77.818862"><ele>364.4</ele></trkpt><trkpt lat="40.783614" lon="-77.818892"><ele>364.1</ele></trkpt><trkpt lat="40.783617" lon="-77.818937"><ele>363.8</ele></trkpt><trkpt lat="40.78362" lon="-77.819"><ele>363.5</ele></trkpt><trkpt lat="40.783521" lon="-77.819147"><ele>363.2</ele></trkpt><trkpt lat="40.783517" lon="-77.819257"><ele>362.8</ele></trkpt><trkpt lat="40.783828" lon="-77.821857"><ele>351.6</ele></trkpt><trkpt lat="40.783903" lon="-77.82216"><ele>351</ele></trkpt><trkpt lat="40.783958" lon="-77.822632"><ele>349.8</ele></trkpt><trkpt lat="40.783954" lon="-77.82287"><ele>349.3</ele></trkpt><trkpt lat="40.784004" lon="-77.823337"><ele>348.6</ele></trkpt><trkpt lat="40.784116" lon="-77.824068"><ele>347.5</ele></trkpt><trkpt lat="40.784121" lon="-77.824106"><ele>347.4</ele></trkpt><trkpt lat="40.784131" lon="-77.824167"><ele>347.2</ele></trkpt><trkpt lat="40.784137" lon="-77.824204"><ele>347.1</ele></trkpt><trkpt lat="40.784268" lon="-77.82519"><ele>346.4</ele></trkpt><trkpt lat="40.784297" lon="-77.825232"><ele>346.3</ele></trkpt><trkpt lat="40.784394" lon="-77.825289"><ele>346.2</ele></trkpt><trkpt lat="40.784425" lon="-77.825336"><ele>346.2</ele></trkpt><trkpt lat="40.784431" lon="-77.825386"><ele>346.1</ele></trkpt><trkpt lat="40.784432" lon="-77.825499"><ele>346.1</ele></trkpt><trkpt lat="40.784328" lon="-77.825592"><ele>346</ele></trkpt><trkpt lat="40.784312" lon="-77.825682"><ele>346</ele></trkpt><trkpt lat="40.784337" lon="-77.825931"><ele>345.9</ele></trkpt><trkpt lat="40.784431" lon="-77.826438"><ele>345.9</ele></trkpt><trkpt lat="40.784422" lon="-77.826619"><ele>345.8</ele></trkpt><trkpt lat="40.784717" lon="-77.829"><ele>344</ele></trkpt><trkpt lat="40.784788" lon="-77.82918"><ele>343.9</ele></trkpt><trkpt lat="40.784808" lon="-77.829217"><ele>343.7</ele></trkpt><trkpt lat="40.784864" lon="-77.829251"><ele>343.5</ele></trkpt><trkpt lat="40.784878" lon="-77.829369"><ele>343.1</ele></trkpt><trkpt lat="40.784876" lon="-77.829477"><ele>342.6</ele></trkpt><trkpt lat="40.784834" lon="-77.829574"><ele>342.1</ele></trkpt><trkpt lat="40.784808" lon="-77.829652"><ele>341.6</ele></trkpt><trkpt lat="40.784805" lon="-77.829759"><ele>341.1</ele></trkpt><trkpt lat="40.784955" lon="-77.830995"><ele>335.3</ele></trkpt><trkpt lat="40.785028" lon="-77.831725"><ele>331.3</ele></trkpt><trkpt lat="40.785052" lon="-77.831808"><ele>330.9</ele></trkpt><trkpt lat="40.785075" lon="-77.83185"><ele>330.5</ele></trkpt><trkpt lat="40.78516" lon="-77.832004"><ele>326.9</ele></trkpt><trkpt lat="40.785288" lon="-77.832132"><ele>327.3</ele></trkpt><trkpt lat="40.785299" lon="-77.83221"><ele>327.5</ele></trkpt><trkpt lat="40.785315" lon="-77.832325"><ele>327.6</ele></trkpt><trkpt lat="40.785261" lon="-77.832347"><ele>326.9</ele></trkpt><trkpt lat="40.785202" lon="-77.832414"><ele>326.3</ele></trkpt><trkpt lat="40.78517" lon="-77.832503"><ele>325.9</ele></trkpt><trkpt lat="40.785162" lon="-77.83261"><ele>325.5</ele></trkpt><trkpt lat="40.785296" lon="-77.834061"><ele>323.5</ele></trkpt><trkpt lat="40.785345" lon="-77.834184"><ele>323.1</ele></trkpt><trkpt lat="40.785321" lon="-77.834228"><ele>322.7</ele></trkpt><trkpt lat="40.785306" lon="-77.834254"><ele>322.3</ele></trkpt><trkpt lat="40.785295" lon="-77.834282"><ele>321.9</ele></trkpt><trkpt lat="40.785291" lon="-77.834321"><ele>321.7</ele></trkpt><trkpt lat="40.785294" lon="-77.834389"><ele>321.6</ele></trkpt><trkpt lat="40.785312" lon="-77.834547"><ele>321.5</ele></trkpt><trkpt lat="40.785358" lon="-77.835092"><ele>321</ele></trkpt><trkpt lat="40.78537" lon="-77.835311"><ele>320.9</ele></trkpt><trkpt lat="40.785393" lon="-77.835613"><ele>320.7</ele></trkpt><trkpt lat="40.785406" lon="-77.835795"><ele>320.7</ele></trkpt><trkpt lat="40.785432" lon="-77.836115"><ele>320.6</ele></trkpt><trkpt lat="40.78544" lon="-77.836209"><ele>321</ele></trkpt><trkpt lat="40.785482" lon="-77.836513"><ele>321</ele></trkpt><trkpt lat="40.785481" lon="-77.836584"><ele>321</ele></trkpt><trkpt lat="40.785398" lon="-77.836971"><ele>321</ele></trkpt><trkpt lat="40.785399" lon="-77.83698"><ele>321</ele></trkpt></trkseg></trk></gpx>