<gpx xmlns="http://www.topografix.com/GPX/1/1" xmlns:xsi="http://www.w3.org/2001/XMLSchema-instance" xsi:schemaLocation="http://www.topografix.com/GPX/1/1 http://www.topografix.com/GPX/1/1/gpx.xsd" version="1.1" creator="togpx"><metadata/><trk><name></name><desc>ascent=47.8
descent=3.6
transfers=0
fare=0
opacity=0.9</desc><trkseg><trkpt lat="40.784379" lon="-77.860127"><ele>343</ele></trkpt><trkpt lat="40.784377" lon="-77.860123"><ele>343</ele></trkpt><trkpt lat="40.78416" lon="-77.859823"><ele>343</ele></trkpt><trkpt lat="40.784098" lon="-77.859806"><ele>343</ele></trkpt><trkpt lat="40.784031" lon="-77.859827"><ele>342.9</ele></trkpt><trkpt lat="40.783801" lon="-77.860008"><ele>342.8</ele></trkpt><trkpt lat="40.783758" lon="-77.86002"><ele>342.7</ele></trkpt><trkpt lat="40.783716" lon="-77.860005"><ele>342.7</ele></trkpt><trkpt lat="40.783633" lon="-77.859879"><ele>342.6</ele></trkpt><trkpt lat="40.783487" lon="-77.859576"><ele>342.6</ele></trkpt><trkpt lat="40.783175" lon="-77.859302"><ele>342.5</ele></trkpt><trkpt lat="40.783093" lon="-77.859263"><ele>342.5</ele></trkpt><trkpt lat="40.783" lon="-77.859255"><ele>342.5</ele></trkpt><trkpt lat="40.782815" lon="-77.859278"><ele>342.4</ele></trkpt><trkpt lat="40.782653" lon="-77.859214"><ele>342.2</ele></trkpt><trkpt lat="40.782635" lon="-77.859213"><ele>342</ele></trkpt><trkpt lat="40.782558" lon="-77.859229"><ele>341.8</ele></trkpt><trkpt lat="40.782516" lon="-77.859242"><ele>341.6</ele></trkpt><trkpt lat="40.782476" lon="-77.859269"><ele>341.4</ele></trkpt><trkpt lat="40.78228" lon="-77.859454"><ele>341.1</ele></trkpt><trkpt lat="40.782012" lon="-77.859559"><ele>340.7</ele></trkpt><trkpt lat="40.781989" lon="-77.859568"><ele>339.5</ele></trkpt><trkpt lat="40.781788" lon="-77.859796"><ele>339.6</ele></trkpt><trkpt lat="40.781699" lon="-77.859854"><ele>339.6</ele></trkpt><trkpt lat="40.780218" lon="-77.86058"><ele>340.7</ele></trkpt><trkpt lat="40.780095" lon="-77.860584"><ele>340.9</ele></trkpt><trkpt lat="40.779953" lon="-77.860518"><ele>341</ele></trkpt><trkpt lat="40.779441" lon="-77.860195"><ele>341.9</ele></trkpt><trkpt lat="40.779312" lon="-77.860191"><ele>342</ele></trkpt><trkpt lat="40.779177" lon="-77.860238"><ele>342.2</ele></trkpt><trkpt lat="40.779082" lon="-77.860332"><ele>342.3</ele></trkpt><trkpt lat="40.779014" lon="-77.860439"><ele>342.4</ele></trkpt><trkpt lat="40.778853" lon="-77.860831"><ele>342.8</ele></trkpt><trkpt lat="40.778776" lon="-77.860957"><ele>343</ele></trkpt><trkpt lat="40.778692" lon="-77.861038"><ele>343.3</ele></trkpt><trkpt lat="40.778538" lon="-77.861066"><ele>343.5</ele></trkpt><trkpt lat="40.778347" lon="-77.861007"><ele>343.9</ele></trkpt><trkpt lat="40.778023" lon="-77.860848"><ele>344.4</ele></trkpt><trkpt lat="40.777791" lon="-77.860813"><ele>344.7</ele></trkpt><trkpt lat="40.777578" lon="-77.860842"><ele>345</ele></trkpt><trkpt lat="40.77753" lon="-77.860846"><ele>345.1</ele></trkpt><trkpt lat="40.777491" lon="-77.860849"><ele>345.3</ele></trkpt><trkpt lat="40.776942" lon="-77.860648"><ele>346.9</ele></trkpt><trkpt lat="40.776847" lon="-77.860633"><ele>347.1</ele></trkpt><trkpt lat="40.776742" lon="-77.860683"><ele>347.4</ele></trkpt><trkpt lat="40.776506" lon="-77.860902"><ele>348.2</ele></trkpt><trkpt lat="40.776356" lon="-77.861105"><ele>348.7</ele></trkpt><trkpt lat="40.776167" lon="-77.861454"><ele>349.5</ele></trkpt><trkpt lat="40.775984" lon="-77.861699"><ele>350.1</ele></trkpt><trkpt lat="40.775871" lon="-77.861937"><ele>350.6</ele></trkpt><trkpt lat="40.775644" lon="-77.862276"><ele>351.2</ele></trkpt><trkpt lat="40.77558" lon="-77.86234"><ele>351.4</ele></trkpt><trkpt lat="40.775133" lon="-77.862663"><ele>351.6</ele></trkpt><trkpt lat="40.774854" lon="-77.862936"><ele>351.8</ele></trkpt><trkpt lat="40.774725" lon="-77.863113"><ele>352.2</ele></trkpt><trkpt lat="40.774483" lon="-77.86356"><ele>353.4</ele></trkpt><trkpt lat="40.774425" lon="-77.863704"><ele>353.6</ele></trkpt><trkpt lat="40.774365" lon="-77.863989"><ele>354.3</ele></trkpt><trkpt lat="40.774247" lon="-77.864359"><ele>355.2</ele></trkpt><trkpt lat="40.774206" lon="-77.864534"><ele>355.5</ele></trkpt><trkpt lat="40.774139" lon="-77.864997"><ele>356.4</ele></trkpt><trkpt lat="40.774091" lon="-77.865101"><ele>356.7</ele></trkpt><trkpt lat="40.774001" lon="-77.865186"><ele>357</ele></trkpt><trkpt lat="40.773693" lon="-77.865338"><ele>357.8</ele></trkpt><trkpt lat="40.773411" lon="-77.86541"><ele>358.1</ele></trkpt><trkpt lat="40.77321" lon="-77.865534"><ele>358.4</ele></trkpt><trkpt lat="40.772958" lon="-77.86569"><ele>358.8</ele></trkpt><trkpt lat="40.772335" lon="-77.866054"><ele>360.2</ele></trkpt><trkpt lat="40.772283" lon="-77.866077"><ele>360.5</ele></trkpt><trkpt lat="40.772221" lon="-77.866107"><ele>360.8</ele></trkpt><trkpt lat="40.772173" lon="-77.86613"><ele>361.1</ele></trkpt><trkpt lat="40.772125" lon="-77.866151"><ele>361.3</ele></trkpt><trkpt lat="40.772062" lon="-77.866179"><ele>361.6</ele></trkpt><trkpt lat="40.771872" lon="-77.866241"><ele>362.2</ele></trkpt><trkpt lat="40.771771" lon="-77.866234"><ele>362.5</ele></trkpt><trkpt lat="40.771624" lon="-77.866142"><ele>362.8</ele></trkpt><trkpt lat="40.77144" lon="-77.865944"><ele>363.3</ele></trkpt><trkpt lat="40.771333" lon="-77.865888"><ele>363.5</ele></trkpt><trkpt lat="40.771292" lon="-77.865893"><ele>363.7</ele></trkpt><trkpt lat="40.770843" lon="-77.86637"><ele>364.5</ele></trkpt><trkpt lat="40.770675" lon="-77.866474"><ele>365.2</ele></trkpt><trkpt lat="40.770616" lon="-77.8665"><ele>365.7</ele></trkpt><trkpt lat="40.770635" lon="-77.866611"><ele>366.1</ele></trkpt><trkpt lat="40.770587" lon="-77.866673"><ele>366.6</ele></trkpt><trkpt lat="40.770237" lon="-77.8671"><ele>368.2</ele></trkpt><trkpt lat="40.770155" lon="-77.867288"><ele>368.4</ele></trkpt><trkpt lat="40.770052" lon="-77.867732"><ele>369.2</ele></trkpt><trkpt lat="40.769853" lon="-77.868088"><ele>370</ele></trkpt><trkpt lat="40.769649" lon="-77.86829"><ele>370.5</ele></trkpt><trkpt lat="40.76948" lon="-77.868397"><ele>370.8</ele></trkpt><trkpt lat="40.769368" lon="-77.86851"><ele>370.6</ele></trkpt><trkpt lat="40.769267" lon="-77.868654"><ele>370.5</ele></trkpt><trkpt lat="40.769116" lon="-77.868974"><ele>370</ele></trkpt><trkpt lat="40.769043" lon="-77.869077"><ele>369.9</ele></trkpt><trkpt lat="40.768889" lon="-77.86919"><ele>369.9</ele></trkpt><trkpt lat="40.768581" lon="-77.869335"><ele>370.6</ele></trkpt><trkpt lat="40.768403" lon="-77.869416"><ele>371.3</ele></trkpt><trkpt lat="40.768343" lon="-77.869443"><ele>371.7</ele></trkpt><trkpt lat="40.768295" lon="-77.869472"><ele>372</ele></trkpt><trkpt lat="40.768289" lon="-77.869476"><ele>372.4</ele></trkpt><trkpt lat="40.768208" lon="-77.86951"><ele>372.7</ele></trkpt><trkpt lat="40.768106" lon="-77.869607"><ele>373.1</ele></trkpt><trkpt lat="40.76804" lon="-77.869771"><ele>373.5</ele></trkpt><trkpt lat="40.767965" lon="-77.870123"><ele>374.6</ele></trkpt><trkpt lat="40.7679" lon="-77.870312"><ele>374.9</ele></trkpt><trkpt lat="40.767516" lon="-77.870908"><ele>376.9</ele></trkpt><trkpt lat="40.767499" lon="-77.87093"><ele>377</ele></trkpt><trkpt lat="40.767477" lon="-77.870967"><ele>377</ele></trkpt><trkpt lat="40.767455" lon="-77.871006"><ele>377.1</ele></trkpt><trkpt lat="40.767203" lon="-77.871399"><ele>377.5</ele></trkpt><trkpt lat="40.767102" lon="-77.871522"><ele>377.6</ele></trkpt><trkpt lat="40.766963" lon="-77.871644"><ele>377.7</ele></trkpt><trkpt lat="40.766915" lon="-77.871693"><ele>377.8</ele></trkpt><trkpt lat="40.766884" lon="-77.871724"><ele>377.9</ele></trkpt><trkpt lat="40.766671" lon="-77.871981"><ele>378.2</ele></trkpt><trkpt lat="40.76657" lon="-77.872144"><ele>378.3</ele></trkpt><trkpt lat="40.766547" lon="-77.872185"><ele>378.4</ele></trkpt><trkpt lat="40.766521" lon="-77.872229"><ele>378.7</ele></trkpt><trkpt lat="40.7665" lon="-77.872264"><ele>379</ele></trkpt><trkpt lat="40.766354" lon="-77.872542"><ele>379.6</ele></trkpt><trkpt lat="40.766231" lon="-77.872864"><ele>380.5</ele></trkpt><trkpt lat="40.766054" lon="-77.87318"><ele>381.4</ele></trkpt><trkpt lat="40.766043" lon="-77.87321"><ele>381.8</ele></trkpt><trkpt lat="40.766025" lon="-77.873256"><ele>382.1</ele></trkpt><trkpt lat="40.766007" lon="-77.873301"><ele>382.5</ele></trkpt><trkpt lat="40.765913" lon="-77.873525"><ele>383.2</ele></trkpt><trkpt lat="40.765807" lon="-77.873728"><ele>383.9</ele></trkpt><trkpt lat="40.765761" lon="-77.873899"><ele>384.2</ele></trkpt><trkpt lat="40.765785" lon="-77.874141"><ele>384.9</ele></trkpt><trkpt lat="40.765812" lon="-77.874226"><ele>385</ele></trkpt><trkpt lat="40.765969" lon="-77.87451"><ele>385.3</ele></trkpt><trkpt lat="40.765986" lon="-77.87463"><ele>385.4</ele></trkpt><trkpt lat="40.76595" lon="-77.874782"><ele>385.6</ele></trkpt><trkpt lat="40.765772" lon="-77.875287"><ele>385.8</ele></trkpt><trkpt lat="40.765756" lon="-77.875333"><ele>385.8</ele></trkpt><trkpt lat="40.765741" lon="-77.875376"><ele>385.7</ele></trkpt><trkpt lat="40.765731" lon="-77.875404"><ele>385.7</ele></trkpt><trkpt lat="40.765654" lon="-77.875635"><ele>385.6</ele></trkpt><trkpt lat="40.765538" lon="-77.875876"><ele>385.5</ele></trkpt><trkpt lat="40.764398" lon="-77.877772"><ele>386.1</ele></trkpt><trkpt lat="40.764443" lon="-77.877819"><ele>386</ele></trkpt></trkseg></trk></gpx>