<gpx xmlns="http://www.topografix.com/GPX/1/1" xmlns:xsi="http://www.w3.org/2001/XMLSchema-instance" xsi:schemaLocation="http://www.topografix.com/GPX/1/1 http://www.topografix.com/GPX/1/1/gpx.xsd" version="1.1" creator="togpx"><metadata/><trk><name></name><desc>ascent=65.6
descent=27
transfers=0
fare=0
opacity=0.9</desc><trkseg><trkpt lat="40.794436" lon="-77.861593"><ele>351</ele></trkpt><trkpt lat="40.794428" lon="-77.861604"><ele>351</ele></trkpt><trkpt lat="40.793579" lon="-77.862759"><ele>351.9</ele></trkpt><trkpt lat="40.793082" lon="-77.863417"><ele>352.4</ele></trkpt><trkpt lat="40.792979" lon="-77.863553"><ele>352.5</ele></trkpt><trkpt lat="40.792708" lon="-77.863914"><ele>352.8</ele></trkpt><trkpt lat="40.792517" lon="-77.864216"><ele>352.9</ele></trkpt><trkpt lat="40.792304" lon="-77.864502"><ele>353</ele></trkpt><trkpt lat="40.792025" lon="-77.864865"><ele>353.6</ele></trkpt><trkpt lat="40.791742" lon="-77.865201"><ele>354.6</ele></trkpt><trkpt lat="40.79161" lon="-77.864834"><ele>355.2</ele></trkpt><trkpt lat="40.791459" lon="-77.864612"><ele>355.1</ele></trkpt><trkpt lat="40.791451" lon="-77.864602"><ele>354.9</ele></trkpt><trkpt lat="40.791382" lon="-77.864513"><ele>350</ele></trkpt><trkpt lat="40.791165" lon="-77.864235"><ele>350</ele></trkpt><trkpt lat="40.790822" lon="-77.863793"><ele>350</ele></trkpt><trkpt lat="40.790462" lon="-77.863313"><ele>350</ele></trkpt><trkpt lat="40.790169" lon="-77.862927"><ele>350</ele></trkpt><trkpt lat="40.789989" lon="-77.862691"><ele>350</ele></trkpt><trkpt lat="40.789762" lon="-77.862387"><ele>350.1</ele></trkpt><trkpt lat="40.78968" lon="-77.862347"><ele>350.2</ele></trkpt><trkpt lat="40.789584" lon="-77.862226"><ele>350.2</ele></trkpt><trkpt lat="40.789491" lon="-77.862106"><ele>350.3</ele></trkpt><trkpt lat="40.789459" lon="-77.861992"><ele>350.3</ele></trkpt><trkpt lat="40.789107" lon="-77.86153"><ele>351.8</ele></trkpt><trkpt lat="40.788783" lon="-77.861104"><ele>354</ele></trkpt><trkpt lat="40.788421" lon="-77.860638"><ele>356.2</ele></trkpt><trkpt lat="40.788086" lon="-77.860203"><ele>357.9</ele></trkpt><trkpt lat="40.787812" lon="-77.859846"><ele>358.3</ele></trkpt><trkpt lat="40.78773" lon="-77.859739"><ele>358.2</ele></trkpt><trkpt lat="40.78737" lon="-77.85926"><ele>357.7</ele></trkpt><trkpt lat="40.787173" lon="-77.858982"><ele>357</ele></trkpt><trkpt lat="40.787017" lon="-77.858764"><ele>351</ele></trkpt><trkpt lat="40.786881" lon="-77.858548"><ele>350.2</ele></trkpt><trkpt lat="40.786699" lon="-77.858231"><ele>348.8</ele></trkpt><trkpt lat="40.786542" lon="-77.857885"><ele>347.7</ele></trkpt><trkpt lat="40.786397" lon="-77.857513"><ele>347.1</ele></trkpt><trkpt lat="40.786271" lon="-77.857084"><ele>346.7</ele></trkpt><trkpt lat="40.786124" lon="-77.856379"><ele>344.7</ele></trkpt><trkpt lat="40.786074" lon="-77.856103"><ele>343.9</ele></trkpt><trkpt lat="40.786043" lon="-77.855932"><ele>343.6</ele></trkpt><trkpt lat="40.785984" lon="-77.855606"><ele>343.1</ele></trkpt><trkpt lat="40.785965" lon="-77.855503"><ele>342.9</ele></trkpt><trkpt lat="40.785902" lon="-77.855155"><ele>342.3</ele></trkpt><trkpt lat="40.785878" lon="-77.855022"><ele>342.1</ele></trkpt><trkpt lat="40.785794" lon="-77.854557"><ele>341.4</ele></trkpt><trkpt lat="40.78578" lon="-77.854485"><ele>341.3</ele></trkpt><trkpt lat="40.785732" lon="-77.854216"><ele>340.9</ele></trkpt><trkpt lat="40.785702" lon="-77.85405"><ele>340.7</ele></trkpt><trkpt lat="40.785642" lon="-77.853709"><ele>340.3</ele></trkpt><trkpt lat="40.785594" lon="-77.853441"><ele>340</ele></trkpt><trkpt lat="40.785453" lon="-77.852643"><ele>339.1</ele></trkpt><trkpt lat="40.785309" lon="-77.851836"><ele>337.4</ele></trkpt><trkpt lat="40.785217" lon="-77.851322"><ele>336.3</ele></trkpt><trkpt lat="40.785151" lon="-77.85095"><ele>335.3</ele></trkpt><trkpt lat="40.784962" lon="-77.849904"><ele>338.8</ele></trkpt><trkpt lat="40.784715" lon="-77.848545"><ele>342.4</ele></trkpt><trkpt lat="40.784501" lon="-77.848479"><ele>343.1</ele></trkpt><trkpt lat="40.784317" lon="-77.848448"><ele>343.6</ele></trkpt><trkpt lat="40.784219" lon="-77.848444"><ele>343.7</ele></trkpt><trkpt lat="40.784009" lon="-77.848498"><ele>344</ele></trkpt><trkpt lat="40.78373" lon="-77.848602"><ele>344</ele></trkpt><trkpt lat="40.783422" lon="-77.848759"><ele>344</ele></trkpt><trkpt lat="40.783202" lon="-77.848906"><ele>344</ele></trkpt><trkpt lat="40.782977" lon="-77.849093"><ele>344.1</ele></trkpt><trkpt lat="40.782778" lon="-77.84929"><ele>344.2</ele></trkpt><trkpt lat="40.782644" lon="-77.84945"><ele>344.3</ele></trkpt><trkpt lat="40.782378" lon="-77.849828"><ele>344.2</ele></trkpt><trkpt lat="40.781495" lon="-77.85145"><ele>340.4</ele></trkpt><trkpt lat="40.78145" lon="-77.851532"><ele>340</ele></trkpt><trkpt lat="40.780435" lon="-77.853428"><ele>339</ele></trkpt><trkpt lat="40.780346" lon="-77.85359"><ele>339.2</ele></trkpt><trkpt lat="40.780172" lon="-77.853803"><ele>339.6</ele></trkpt><trkpt lat="40.779865" lon="-77.85404"><ele>340</ele></trkpt><trkpt lat="40.779524" lon="-77.854221"><ele>340.5</ele></trkpt><trkpt lat="40.779434" lon="-77.854265"><ele>340.6</ele></trkpt><trkpt lat="40.779148" lon="-77.854393"><ele>341.1</ele></trkpt><trkpt lat="40.779074" lon="-77.854422"><ele>341.3</ele></trkpt><trkpt lat="40.778894" lon="-77.854479"><ele>342.2</ele></trkpt><trkpt lat="40.778764" lon="-77.854517"><ele>342.6</ele></trkpt><trkpt lat="40.778378" lon="-77.854592"><ele>344.5</ele></trkpt><trkpt lat="40.777934" lon="-77.854627"><ele>346.3</ele></trkpt><trkpt lat="40.777799" lon="-77.854645"><ele>346.7</ele></trkpt><trkpt lat="40.777432" lon="-77.854759"><ele>348.5</ele></trkpt><trkpt lat="40.777147" lon="-77.854915"><ele>349.6</ele></trkpt><trkpt lat="40.777028" lon="-77.854999"><ele>349.9</ele></trkpt><trkpt lat="40.776855" lon="-77.855147"><ele>350.4</ele></trkpt><trkpt lat="40.776622" lon="-77.855398"><ele>351.4</ele></trkpt><trkpt lat="40.776191" lon="-77.855863"><ele>353.8</ele></trkpt><trkpt lat="40.775863" lon="-77.856212"><ele>355.4</ele></trkpt><trkpt lat="40.775558" lon="-77.856413"><ele>356.5</ele></trkpt><trkpt lat="40.775354" lon="-77.856491"><ele>357.3</ele></trkpt><trkpt lat="40.775066" lon="-77.856531"><ele>357.7</ele></trkpt><trkpt lat="40.774771" lon="-77.856499"><ele>358</ele></trkpt><trkpt lat="40.77452" lon="-77.856397"><ele>358.6</ele></trkpt><trkpt lat="40.774272" lon="-77.856228"><ele>359.4</ele></trkpt><trkpt lat="40.774112" lon="-77.85607"><ele>359.9</ele></trkpt><trkpt lat="40.773712" lon="-77.855564"><ele>361.5</ele></trkpt><trkpt lat="40.773689" lon="-77.855535"><ele>361.8</ele></trkpt><trkpt lat="40.773467" lon="-77.855254"><ele>362.7</ele></trkpt><trkpt lat="40.773373" lon="-77.855128"><ele>362.9</ele></trkpt><trkpt lat="40.773037" lon="-77.854675"><ele>363</ele></trkpt><trkpt lat="40.772781" lon="-77.855002"><ele>363.6</ele></trkpt><trkpt lat="40.772614" lon="-77.85526"><ele>364.4</ele></trkpt><trkpt lat="40.772004" lon="-77.856333"><ele>369.4</ele></trkpt><trkpt lat="40.77021" lon="-77.859573"><ele>370.6</ele></trkpt><trkpt lat="40.770146" lon="-77.859687"><ele>370.5</ele></trkpt><trkpt lat="40.770004" lon="-77.859941"><ele>370.4</ele></trkpt><trkpt lat="40.769569" lon="-77.860716"><ele>370.8</ele></trkpt><trkpt lat="40.769216" lon="-77.861342"><ele>371.6</ele></trkpt><trkpt lat="40.768641" lon="-77.862376"><ele>372.9</ele></trkpt><trkpt lat="40.767732" lon="-77.863983"><ele>371.7</ele></trkpt><trkpt lat="40.767239" lon="-77.864805"><ele>371.2</ele></trkpt><trkpt lat="40.76661" lon="-77.865856"><ele>373.8</ele></trkpt><trkpt lat="40.765643" lon="-77.867545"><ele>375.8</ele></trkpt><trkpt lat="40.764234" lon="-77.870135"><ele>374.4</ele></trkpt><trkpt lat="40.764165" lon="-77.870266"><ele>374.3</ele></trkpt><trkpt lat="40.763321" lon="-77.871786"><ele>374.6</ele></trkpt><trkpt lat="40.761586" lon="-77.87501"><ele>376.3</ele></trkpt><trkpt lat="40.761241" lon="-77.875645"><ele>376.6</ele></trkpt><trkpt lat="40.760893" lon="-77.876286"><ele>380.5</ele></trkpt><trkpt lat="40.760791" lon="-77.876475"><ele>380.7</ele></trkpt><trkpt lat="40.7605" lon="-77.877003"><ele>381.2</ele></trkpt><trkpt lat="40.760367" lon="-77.877234"><ele>381.6</ele></trkpt><trkpt lat="40.760314" lon="-77.87733"><ele>381.8</ele></trkpt><trkpt lat="40.759984" lon="-77.877912"><ele>382.6</ele></trkpt></trkseg></trk></gpx>