<?xml version="1.0" encoding="UTF-8"?>
<gpx xmlns:xsi="http://www.w3.org/2001/XMLSchema-instance" xmlns="http://www.topografix.com/GPX/1/1" xmlns:gpxdata="http://www.cluetrust.com/XML/GPXDATA/1/0" xsi:schemaLocation="http://www.topografix.com/GPX/1/1 http://www.topografix.com/GPX/1/1/gpx.xsd http://www.cluetrust.com/XML/GPXDATA/1/0 http://www.cluetrust.com/Schemas/gpxdata10.xsd" version="1.1" creator="http://ridewithgps.com/">
  <metadata>
    <name>Beaver Ave Shuttle -- Fall 2024</name>
    <link href="https://ridewithgps.com/routes/47915602">
      <text>Beaver Ave Shuttle -- Fall 2024</text>
    </link>
    <time>2024-08-07T13:42:10Z</time>
  </metadata>
  <trk>
    <name>Beaver Ave Shuttle -- Fall 2024</name>
    <trkseg>
      <trkpt lat="40.7913" lon="-77.87225">
        <ele>364.4</ele>
      </trkpt>
      <trkpt lat="40.79143" lon="-77.87208">
        <ele>364.3</ele>
      </trkpt>
      <trkpt lat="40.79148" lon="-77.87206">
        <ele>364.3</ele>
      </trkpt>
      <trkpt lat="40.79153" lon="-77.87208">
        <ele>364.2</ele>
      </trkpt>
      <trkpt lat="40.7916" lon="-77.87217">
        <ele>364.0</ele>
      </trkpt>
      <trkpt lat="40.79185" lon="-77.87185">
        <ele>364.7</ele>
      </trkpt>
      <trkpt lat="40.79194" lon="-77.87176">
        <ele>364.2</ele>
      </trkpt>
      <trkpt lat="40.79207" lon="-77.87172">
        <ele>363.8</ele>
      </trkpt>
      <trkpt lat="40.79223" lon="-77.87174">
        <ele>363.7</ele>
      </trkpt>
      <trkpt lat="40.79241" lon="-77.8718">
        <ele>364.0</ele>
      </trkpt>
      <trkpt lat="40.79246" lon="-77.87182">
        <ele>364.1</ele>
      </trkpt>
      <trkpt lat="40.79254" lon="-77.8718">
        <ele>364.1</ele>
      </trkpt>
      <trkpt lat="40.79265" lon="-77.87173">
        <ele>364.1</ele>
      </trkpt>
      <trkpt lat="40.79317" lon="-77.87108">
        <ele>363.7</ele>
      </trkpt>
      <trkpt lat="40.7936" lon="-77.87047">
        <ele>360.3</ele>
      </trkpt>
      <trkpt lat="40.79404" lon="-77.86987">
        <ele>358.2</ele>
      </trkpt>
      <trkpt lat="40.79404" lon="-77.86987">
        <ele>358.2</ele>
      </trkpt>
      <trkpt lat="40.79458" lon="-77.86913">
        <ele>363.4</ele>
      </trkpt>
      <trkpt lat="40.79424" lon="-77.86884">
        <ele>359.6</ele>
      </trkpt>
      <trkpt lat="40.79424" lon="-77.86884">
        <ele>359.6</ele>
      </trkpt>
      <trkpt lat="40.79377" lon="-77.86845">
        <ele>357.8</ele>
      </trkpt>
      <trkpt lat="40.79352" lon="-77.8682">
        <ele>358.2</ele>
      </trkpt>
      <trkpt lat="40.79336" lon="-77.86802">
        <ele>358.3</ele>
      </trkpt>
      <trkpt lat="40.79308" lon="-77.86765">
        <ele>356.4</ele>
      </trkpt>
      <trkpt lat="40.79287" lon="-77.8673">
        <ele>354.5</ele>
      </trkpt>
      <trkpt lat="40.79287" lon="-77.8673">
        <ele>354.5</ele>
      </trkpt>
      <trkpt lat="40.79266" lon="-77.86696">
        <ele>353.6</ele>
      </trkpt>
      <trkpt lat="40.79229" lon="-77.86628">
        <ele>357.9</ele>
      </trkpt>
      <trkpt lat="40.79191" lon="-77.86561">
        <ele>355.5</ele>
      </trkpt>
      <trkpt lat="40.79178" lon="-77.86529">
        <ele>352.9</ele>
      </trkpt>
      <trkpt lat="40.79161" lon="-77.86483">
        <ele>352.5</ele>
      </trkpt>
      <trkpt lat="40.79146" lon="-77.86461">
        <ele>352.2</ele>
      </trkpt>
      <trkpt lat="40.79097" lon="-77.86398">
        <ele>354.2</ele>
      </trkpt>
      <trkpt lat="40.79082" lon="-77.86379">
        <ele>354.2</ele>
      </trkpt>
      <trkpt lat="40.79121" lon="-77.86328">
        <ele>355.7</ele>
      </trkpt>
      <trkpt lat="40.7916" lon="-77.86277">
        <ele>354.7</ele>
      </trkpt>
      <trkpt lat="40.7916" lon="-77.86277">
        <ele>354.7</ele>
      </trkpt>
      <trkpt lat="40.79171" lon="-77.86262">
        <ele>354.3</ele>
      </trkpt>
      <trkpt lat="40.79224" lon="-77.86331">
        <ele>352.7</ele>
      </trkpt>
      <trkpt lat="40.79278" lon="-77.864">
        <ele>355.9</ele>
      </trkpt>
      <trkpt lat="40.79304" lon="-77.86437">
        <ele>360.8</ele>
      </trkpt>
      <trkpt lat="40.79304" lon="-77.86437">
        <ele>360.8</ele>
      </trkpt>
      <trkpt lat="40.79334" lon="-77.86481">
        <ele>360.9</ele>
      </trkpt>
      <trkpt lat="40.79364" lon="-77.86526">
        <ele>359.8</ele>
      </trkpt>
      <trkpt lat="40.79414" lon="-77.86589">
        <ele>368.1</ele>
      </trkpt>
      <trkpt lat="40.79463" lon="-77.86653">
        <ele>361.8</ele>
      </trkpt>
      <trkpt lat="40.79512" lon="-77.86717">
        <ele>364.9</ele>
      </trkpt>
      <trkpt lat="40.79562" lon="-77.86781">
        <ele>368.1</ele>
      </trkpt>
      <trkpt lat="40.79562" lon="-77.86781">
        <ele>368.1</ele>
      </trkpt>
      <trkpt lat="40.79594" lon="-77.86822">
        <ele>369.1</ele>
      </trkpt>
      <trkpt lat="40.79603" lon="-77.86832">
        <ele>369.6</ele>
      </trkpt>
      <trkpt lat="40.79613" lon="-77.8684">
        <ele>370.0</ele>
      </trkpt>
      <trkpt lat="40.79625" lon="-77.86845">
        <ele>370.2</ele>
      </trkpt>
      <trkpt lat="40.79649" lon="-77.86845">
        <ele>370.3</ele>
      </trkpt>
      <trkpt lat="40.79671" lon="-77.86833">
        <ele>371.7</ele>
      </trkpt>
      <trkpt lat="40.79696" lon="-77.86802">
        <ele>373.3</ele>
      </trkpt>
      <trkpt lat="40.79696" lon="-77.86802">
        <ele>373.3</ele>
      </trkpt>
      <trkpt lat="40.79759" lon="-77.86718">
        <ele>371.6</ele>
      </trkpt>
      <trkpt lat="40.79822" lon="-77.86634">
        <ele>372.4</ele>
      </trkpt>
      <trkpt lat="40.79853" lon="-77.86595">
        <ele>374.0</ele>
      </trkpt>
      <trkpt lat="40.79868" lon="-77.86584">
        <ele>372.6</ele>
      </trkpt>
      <trkpt lat="40.79889" lon="-77.86575">
        <ele>371.3</ele>
      </trkpt>
      <trkpt lat="40.79931" lon="-77.86568">
        <ele>371.8</ele>
      </trkpt>
      <trkpt lat="40.79983" lon="-77.86562">
        <ele>372.1</ele>
      </trkpt>
      <trkpt lat="40.80002" lon="-77.86554">
        <ele>372.8</ele>
      </trkpt>
      <trkpt lat="40.80013" lon="-77.86547">
        <ele>373.3</ele>
      </trkpt>
      <trkpt lat="40.80027" lon="-77.86534">
        <ele>373.2</ele>
      </trkpt>
      <trkpt lat="40.80027" lon="-77.86534">
        <ele>373.2</ele>
      </trkpt>
      <trkpt lat="40.80091" lon="-77.86472">
        <ele>370.3</ele>
      </trkpt>
      <trkpt lat="40.80156" lon="-77.8641">
        <ele>369.5</ele>
      </trkpt>
      <trkpt lat="40.8022" lon="-77.86349">
        <ele>370.4</ele>
      </trkpt>
      <trkpt lat="40.8022" lon="-77.86349">
        <ele>370.4</ele>
      </trkpt>
      <trkpt lat="40.80274" lon="-77.86297">
        <ele>365.6</ele>
      </trkpt>
      <trkpt lat="40.80327" lon="-77.86246">
        <ele>364.6</ele>
      </trkpt>
      <trkpt lat="40.80381" lon="-77.86194">
        <ele>363.3</ele>
      </trkpt>
      <trkpt lat="40.80381" lon="-77.86194">
        <ele>363.3</ele>
      </trkpt>
      <trkpt lat="40.80441" lon="-77.86137">
        <ele>364.5</ele>
      </trkpt>
      <trkpt lat="40.80501" lon="-77.8608">
        <ele>365.3</ele>
      </trkpt>
      <trkpt lat="40.80562" lon="-77.86023">
        <ele>363.1</ele>
      </trkpt>
      <trkpt lat="40.80624" lon="-77.85963">
        <ele>362.6</ele>
      </trkpt>
      <trkpt lat="40.80686" lon="-77.85902">
        <ele>360.5</ele>
      </trkpt>
      <trkpt lat="40.80749" lon="-77.85842">
        <ele>359.1</ele>
      </trkpt>
      <trkpt lat="40.80811" lon="-77.85782">
        <ele>353.6</ele>
      </trkpt>
      <trkpt lat="40.80811" lon="-77.85782">
        <ele>353.6</ele>
      </trkpt>
      <trkpt lat="40.80821" lon="-77.85773">
        <ele>353.6</ele>
      </trkpt>
      <trkpt lat="40.80854" lon="-77.85846">
        <ele>356.9</ele>
      </trkpt>
      <trkpt lat="40.80854" lon="-77.85846">
        <ele>356.9</ele>
      </trkpt>
      <trkpt lat="40.8089" lon="-77.85922">
        <ele>356.0</ele>
      </trkpt>
      <trkpt lat="40.80927" lon="-77.85998">
        <ele>353.7</ele>
      </trkpt>
      <trkpt lat="40.80963" lon="-77.86075">
        <ele>351.3</ele>
      </trkpt>
      <trkpt lat="40.80963" lon="-77.86075">
        <ele>351.3</ele>
      </trkpt>
      <trkpt lat="40.80994" lon="-77.86144">
        <ele>353.9</ele>
      </trkpt>
      <trkpt lat="40.81018" lon="-77.8621">
        <ele>349.8</ele>
      </trkpt>
      <trkpt lat="40.81071" lon="-77.86173">
        <ele>352.1</ele>
      </trkpt>
      <trkpt lat="40.81105" lon="-77.86144">
        <ele>352.0</ele>
      </trkpt>
      <trkpt lat="40.81155" lon="-77.86095">
        <ele>350.5</ele>
      </trkpt>
      <trkpt lat="40.81205" lon="-77.86039">
        <ele>348.6</ele>
      </trkpt>
      <trkpt lat="40.8126" lon="-77.85967">
        <ele>347.5</ele>
      </trkpt>
      <trkpt lat="40.81299" lon="-77.85906">
        <ele>344.9</ele>
      </trkpt>
      <trkpt lat="40.81338" lon="-77.85845">
        <ele>343.3</ele>
      </trkpt>
      <trkpt lat="40.81338" lon="-77.85845">
        <ele>343.3</ele>
      </trkpt>
      <trkpt lat="40.81386" lon="-77.85766">
        <ele>344.0</ele>
      </trkpt>
      <trkpt lat="40.81434" lon="-77.85687">
        <ele>339.9</ele>
      </trkpt>
      <trkpt lat="40.81483" lon="-77.85609">
        <ele>339.4</ele>
      </trkpt>
      <trkpt lat="40.81531" lon="-77.8553">
        <ele>339.9</ele>
      </trkpt>
      <trkpt lat="40.81579" lon="-77.85451">
        <ele>337.3</ele>
      </trkpt>
      <trkpt lat="40.81627" lon="-77.85372">
        <ele>334.0</ele>
      </trkpt>
      <trkpt lat="40.81627" lon="-77.85372">
        <ele>334.0</ele>
      </trkpt>
      <trkpt lat="40.8167" lon="-77.85303">
        <ele>331.9</ele>
      </trkpt>
      <trkpt lat="40.81713" lon="-77.85233">
        <ele>330.4</ele>
      </trkpt>
      <trkpt lat="40.81756" lon="-77.85163">
        <ele>327.3</ele>
      </trkpt>
      <trkpt lat="40.81798" lon="-77.85093">
        <ele>325.9</ele>
      </trkpt>
      <trkpt lat="40.81827" lon="-77.85051">
        <ele>330.6</ele>
      </trkpt>
      <trkpt lat="40.81858" lon="-77.85008">
        <ele>336.0</ele>
      </trkpt>
      <trkpt lat="40.8192" lon="-77.84933">
        <ele>341.0</ele>
      </trkpt>
      <trkpt lat="40.81974" lon="-77.84879">
        <ele>337.7</ele>
      </trkpt>
      <trkpt lat="40.81974" lon="-77.84879">
        <ele>337.7</ele>
      </trkpt>
      <trkpt lat="40.81992" lon="-77.84861">
        <ele>335.9</ele>
      </trkpt>
      <trkpt lat="40.82027" lon="-77.84804">
        <ele>330.6</ele>
      </trkpt>
      <trkpt lat="40.8203" lon="-77.84794">
        <ele>330.1</ele>
      </trkpt>
      <trkpt lat="40.82031" lon="-77.84781">
        <ele>329.9</ele>
      </trkpt>
      <trkpt lat="40.82029" lon="-77.84754">
        <ele>330.2</ele>
      </trkpt>
      <trkpt lat="40.82003" lon="-77.84672">
        <ele>332.0</ele>
      </trkpt>
      <trkpt lat="40.81978" lon="-77.84596">
        <ele>335.3</ele>
      </trkpt>
      <trkpt lat="40.81953" lon="-77.8452">
        <ele>337.9</ele>
      </trkpt>
      <trkpt lat="40.81952" lon="-77.84518">
        <ele>337.9</ele>
      </trkpt>
      <trkpt lat="40.81952" lon="-77.84518">
        <ele>337.9</ele>
      </trkpt>
      <trkpt lat="40.81931" lon="-77.84488">
        <ele>337.9</ele>
      </trkpt>
      <trkpt lat="40.81925" lon="-77.84482">
        <ele>337.7</ele>
      </trkpt>
      <trkpt lat="40.81913" lon="-77.84476">
        <ele>337.6</ele>
      </trkpt>
      <trkpt lat="40.81864" lon="-77.84474">
        <ele>335.2</ele>
      </trkpt>
      <trkpt lat="40.81846" lon="-77.84469">
        <ele>334.1</ele>
      </trkpt>
      <trkpt lat="40.8184" lon="-77.84465">
        <ele>333.9</ele>
      </trkpt>
      <trkpt lat="40.8184" lon="-77.84465">
        <ele>333.9</ele>
      </trkpt>
      <trkpt lat="40.81832" lon="-77.8446">
        <ele>333.8</ele>
      </trkpt>
      <trkpt lat="40.81824" lon="-77.84448">
        <ele>333.6</ele>
      </trkpt>
      <trkpt lat="40.8182" lon="-77.84435">
        <ele>333.3</ele>
      </trkpt>
      <trkpt lat="40.81818" lon="-77.84421">
        <ele>333.0</ele>
      </trkpt>
      <trkpt lat="40.81818" lon="-77.84406">
        <ele>332.9</ele>
      </trkpt>
      <trkpt lat="40.8182" lon="-77.84398">
        <ele>333.0</ele>
      </trkpt>
      <trkpt lat="40.81825" lon="-77.84388">
        <ele>333.2</ele>
      </trkpt>
      <trkpt lat="40.81837" lon="-77.84379">
        <ele>333.9</ele>
      </trkpt>
      <trkpt lat="40.81853" lon="-77.84378">
        <ele>334.6</ele>
      </trkpt>
      <trkpt lat="40.81863" lon="-77.84378">
        <ele>335.0</ele>
      </trkpt>
      <trkpt lat="40.81869" lon="-77.84377">
        <ele>335.3</ele>
      </trkpt>
      <trkpt lat="40.81919" lon="-77.84376">
        <ele>333.4</ele>
      </trkpt>
      <trkpt lat="40.81968" lon="-77.84374">
        <ele>333.7</ele>
      </trkpt>
      <trkpt lat="40.81991" lon="-77.84391">
        <ele>336.1</ele>
      </trkpt>
      <trkpt lat="40.81987" lon="-77.84398">
        <ele>336.6</ele>
      </trkpt>
      <trkpt lat="40.81984" lon="-77.84404">
        <ele>336.8</ele>
      </trkpt>
      <trkpt lat="40.81966" lon="-77.84429">
        <ele>335.7</ele>
      </trkpt>
      <trkpt lat="40.81966" lon="-77.84429">
        <ele>335.7</ele>
      </trkpt>
      <trkpt lat="40.81947" lon="-77.84448">
        <ele>336.0</ele>
      </trkpt>
      <trkpt lat="40.81949" lon="-77.84453">
        <ele>336.3</ele>
      </trkpt>
      <trkpt lat="40.81933" lon="-77.84463">
        <ele>336.9</ele>
      </trkpt>
      <trkpt lat="40.81958" lon="-77.84537">
        <ele>337.6</ele>
      </trkpt>
      <trkpt lat="40.81984" lon="-77.84612">
        <ele>334.4</ele>
      </trkpt>
      <trkpt lat="40.81984" lon="-77.84612">
        <ele>334.4</ele>
      </trkpt>
      <trkpt lat="40.82003" lon="-77.84672">
        <ele>332.0</ele>
      </trkpt>
      <trkpt lat="40.82017" lon="-77.84666">
        <ele>330.9</ele>
      </trkpt>
      <trkpt lat="40.82025" lon="-77.84657">
        <ele>330.4</ele>
      </trkpt>
      <trkpt lat="40.8203" lon="-77.84645">
        <ele>330.2</ele>
      </trkpt>
      <trkpt lat="40.82031" lon="-77.84638">
        <ele>330.3</ele>
      </trkpt>
      <trkpt lat="40.82013" lon="-77.84621">
        <ele>331.9</ele>
      </trkpt>
      <trkpt lat="40.82006" lon="-77.84611">
        <ele>332.8</ele>
      </trkpt>
      <trkpt lat="40.82" lon="-77.84598">
        <ele>333.6</ele>
      </trkpt>
      <trkpt lat="40.81997" lon="-77.84589">
        <ele>334.1</ele>
      </trkpt>
      <trkpt lat="40.81997" lon="-77.84581">
        <ele>334.3</ele>
      </trkpt>
      <trkpt lat="40.82001" lon="-77.84556">
        <ele>334.7</ele>
      </trkpt>
      <trkpt lat="40.82001" lon="-77.84556">
        <ele>334.7</ele>
      </trkpt>
      <trkpt lat="40.82004" lon="-77.84541">
        <ele>335.0</ele>
      </trkpt>
      <trkpt lat="40.81997" lon="-77.84581">
        <ele>334.3</ele>
      </trkpt>
      <trkpt lat="40.81997" lon="-77.84589">
        <ele>334.1</ele>
      </trkpt>
      <trkpt lat="40.82006" lon="-77.84611">
        <ele>332.8</ele>
      </trkpt>
      <trkpt lat="40.82013" lon="-77.84621">
        <ele>331.9</ele>
      </trkpt>
      <trkpt lat="40.82031" lon="-77.84638">
        <ele>330.3</ele>
      </trkpt>
      <trkpt lat="40.8203" lon="-77.84645">
        <ele>330.2</ele>
      </trkpt>
      <trkpt lat="40.82025" lon="-77.84657">
        <ele>330.4</ele>
      </trkpt>
      <trkpt lat="40.82017" lon="-77.84666">
        <ele>330.9</ele>
      </trkpt>
      <trkpt lat="40.82003" lon="-77.84672">
        <ele>332.0</ele>
      </trkpt>
      <trkpt lat="40.82025" lon="-77.84742">
        <ele>330.4</ele>
      </trkpt>
      <trkpt lat="40.82047" lon="-77.84813">
        <ele>329.9</ele>
      </trkpt>
      <trkpt lat="40.82057" lon="-77.84798">
        <ele>329.2</ele>
      </trkpt>
      <trkpt lat="40.82098" lon="-77.84767">
        <ele>328.9</ele>
      </trkpt>
      <trkpt lat="40.8215" lon="-77.84732">
        <ele>326.2</ele>
      </trkpt>
      <trkpt lat="40.82223" lon="-77.84688">
        <ele>326.8</ele>
      </trkpt>
      <trkpt lat="40.82295" lon="-77.84645">
        <ele>325.1</ele>
      </trkpt>
      <trkpt lat="40.82368" lon="-77.84602">
        <ele>325.3</ele>
      </trkpt>
      <trkpt lat="40.8244" lon="-77.84558">
        <ele>325.7</ele>
      </trkpt>
      <trkpt lat="40.82513" lon="-77.84515">
        <ele>327.3</ele>
      </trkpt>
      <trkpt lat="40.82585" lon="-77.84472">
        <ele>325.6</ele>
      </trkpt>
      <trkpt lat="40.82644" lon="-77.84435">
        <ele>330.2</ele>
      </trkpt>
      <trkpt lat="40.82703" lon="-77.84399">
        <ele>328.8</ele>
      </trkpt>
      <trkpt lat="40.82762" lon="-77.84363">
        <ele>328.9</ele>
      </trkpt>
      <trkpt lat="40.82804" lon="-77.84336">
        <ele>329.5</ele>
      </trkpt>
      <trkpt lat="40.82856" lon="-77.84297">
        <ele>331.4</ele>
      </trkpt>
      <trkpt lat="40.82908" lon="-77.84259">
        <ele>332.1</ele>
      </trkpt>
      <trkpt lat="40.82956" lon="-77.8422">
        <ele>330.9</ele>
      </trkpt>
      <trkpt lat="40.83005" lon="-77.8417">
        <ele>331.8</ele>
      </trkpt>
      <trkpt lat="40.83042" lon="-77.84123">
        <ele>331.1</ele>
      </trkpt>
      <trkpt lat="40.83097" lon="-77.84044">
        <ele>329.6</ele>
      </trkpt>
      <trkpt lat="40.83124" lon="-77.84012">
        <ele>330.5</ele>
      </trkpt>
      <trkpt lat="40.83166" lon="-77.83974">
        <ele>328.5</ele>
      </trkpt>
      <trkpt lat="40.83208" lon="-77.83937">
        <ele>330.8</ele>
      </trkpt>
      <trkpt lat="40.83208" lon="-77.83937">
        <ele>330.8</ele>
      </trkpt>
      <trkpt lat="40.83263" lon="-77.8389">
        <ele>330.5</ele>
      </trkpt>
      <trkpt lat="40.83272" lon="-77.83889">
        <ele>330.6</ele>
      </trkpt>
      <trkpt lat="40.83305" lon="-77.83965">
        <ele>330.3</ele>
      </trkpt>
      <trkpt lat="40.83341" lon="-77.84052">
        <ele>333.2</ele>
      </trkpt>
      <trkpt lat="40.83377" lon="-77.84138">
        <ele>334.4</ele>
      </trkpt>
      <trkpt lat="40.83378" lon="-77.84149">
        <ele>334.7</ele>
      </trkpt>
      <trkpt lat="40.83374" lon="-77.8416">
        <ele>334.6</ele>
      </trkpt>
      <trkpt lat="40.83369" lon="-77.84166">
        <ele>334.4</ele>
      </trkpt>
      <trkpt lat="40.8334" lon="-77.84185">
        <ele>333.6</ele>
      </trkpt>
      <trkpt lat="40.8334" lon="-77.84185">
        <ele>333.6</ele>
      </trkpt>
      <trkpt lat="40.83288" lon="-77.84221">
        <ele>334.5</ele>
      </trkpt>
      <trkpt lat="40.83235" lon="-77.84257">
        <ele>336.6</ele>
      </trkpt>
      <trkpt lat="40.83193" lon="-77.84294">
        <ele>335.4</ele>
      </trkpt>
      <trkpt lat="40.83138" lon="-77.84359">
        <ele>336.7</ele>
      </trkpt>
      <trkpt lat="40.83084" lon="-77.84423">
        <ele>336.3</ele>
      </trkpt>
      <trkpt lat="40.83029" lon="-77.84488">
        <ele>340.2</ele>
      </trkpt>
      <trkpt lat="40.82985" lon="-77.84554">
        <ele>339.5</ele>
      </trkpt>
      <trkpt lat="40.82965" lon="-77.84592">
        <ele>340.0</ele>
      </trkpt>
      <trkpt lat="40.82947" lon="-77.84631">
        <ele>339.9</ele>
      </trkpt>
      <trkpt lat="40.82915" lon="-77.84724">
        <ele>338.2</ele>
      </trkpt>
      <trkpt lat="40.82883" lon="-77.84817">
        <ele>336.5</ele>
      </trkpt>
      <trkpt lat="40.82851" lon="-77.8491">
        <ele>333.5</ele>
      </trkpt>
      <trkpt lat="40.82852" lon="-77.84917">
        <ele>333.6</ele>
      </trkpt>
      <trkpt lat="40.8285" lon="-77.84924">
        <ele>333.7</ele>
      </trkpt>
      <trkpt lat="40.8285" lon="-77.84924">
        <ele>333.7</ele>
      </trkpt>
      <trkpt lat="40.8285" lon="-77.84924">
        <ele>333.7</ele>
      </trkpt>
      <trkpt lat="40.82844" lon="-77.84928">
        <ele>333.7</ele>
      </trkpt>
      <trkpt lat="40.82839" lon="-77.84927">
        <ele>333.7</ele>
      </trkpt>
      <trkpt lat="40.82835" lon="-77.84922">
        <ele>333.6</ele>
      </trkpt>
      <trkpt lat="40.82834" lon="-77.84915">
        <ele>333.4</ele>
      </trkpt>
      <trkpt lat="40.82834" lon="-77.84911">
        <ele>333.3</ele>
      </trkpt>
      <trkpt lat="40.82836" lon="-77.84908">
        <ele>333.2</ele>
      </trkpt>
      <trkpt lat="40.82841" lon="-77.84904">
        <ele>333.2</ele>
      </trkpt>
      <trkpt lat="40.82867" lon="-77.84828">
        <ele>336.1</ele>
      </trkpt>
      <trkpt lat="40.82893" lon="-77.84753">
        <ele>338.0</ele>
      </trkpt>
      <trkpt lat="40.82919" lon="-77.84677">
        <ele>339.0</ele>
      </trkpt>
      <trkpt lat="40.82938" lon="-77.84623">
        <ele>339.6</ele>
      </trkpt>
      <trkpt lat="40.82955" lon="-77.84585">
        <ele>339.9</ele>
      </trkpt>
      <trkpt lat="40.82992" lon="-77.84522">
        <ele>339.9</ele>
      </trkpt>
      <trkpt lat="40.83022" lon="-77.84479">
        <ele>340.2</ele>
      </trkpt>
      <trkpt lat="40.83069" lon="-77.84423">
        <ele>337.8</ele>
      </trkpt>
      <trkpt lat="40.83116" lon="-77.84367">
        <ele>336.1</ele>
      </trkpt>
      <trkpt lat="40.83116" lon="-77.84367">
        <ele>336.1</ele>
      </trkpt>
      <trkpt lat="40.83151" lon="-77.84325">
        <ele>335.1</ele>
      </trkpt>
      <trkpt lat="40.83186" lon="-77.84283">
        <ele>336.1</ele>
      </trkpt>
      <trkpt lat="40.83229" lon="-77.84244">
        <ele>336.9</ele>
      </trkpt>
      <trkpt lat="40.83283" lon="-77.84208">
        <ele>334.0</ele>
      </trkpt>
      <trkpt lat="40.83336" lon="-77.84172">
        <ele>333.4</ele>
      </trkpt>
      <trkpt lat="40.83361" lon="-77.84153">
        <ele>333.9</ele>
      </trkpt>
      <trkpt lat="40.83366" lon="-77.84145">
        <ele>334.0</ele>
      </trkpt>
      <trkpt lat="40.83367" lon="-77.8414">
        <ele>334.0</ele>
      </trkpt>
      <trkpt lat="40.83366" lon="-77.8413">
        <ele>333.9</ele>
      </trkpt>
      <trkpt lat="40.83332" lon="-77.84051">
        <ele>332.8</ele>
      </trkpt>
      <trkpt lat="40.83298" lon="-77.83972">
        <ele>331.0</ele>
      </trkpt>
      <trkpt lat="40.83233" lon="-77.84028">
        <ele>331.6</ele>
      </trkpt>
      <trkpt lat="40.83233" lon="-77.84028">
        <ele>331.6</ele>
      </trkpt>
      <trkpt lat="40.83207" lon="-77.8405">
        <ele>330.9</ele>
      </trkpt>
      <trkpt lat="40.8315" lon="-77.84086">
        <ele>332.3</ele>
      </trkpt>
      <trkpt lat="40.83093" lon="-77.84122">
        <ele>330.7</ele>
      </trkpt>
      <trkpt lat="40.8303" lon="-77.8417">
        <ele>332.9</ele>
      </trkpt>
      <trkpt lat="40.82968" lon="-77.84224">
        <ele>331.3</ele>
      </trkpt>
      <trkpt lat="40.82907" lon="-77.84279">
        <ele>332.6</ele>
      </trkpt>
      <trkpt lat="40.82851" lon="-77.84324">
        <ele>331.2</ele>
      </trkpt>
      <trkpt lat="40.82826" lon="-77.84341">
        <ele>330.8</ele>
      </trkpt>
      <trkpt lat="40.82748" lon="-77.8439">
        <ele>329.4</ele>
      </trkpt>
      <trkpt lat="40.8267" lon="-77.8444">
        <ele>331.3</ele>
      </trkpt>
      <trkpt lat="40.8267" lon="-77.8444">
        <ele>331.3</ele>
      </trkpt>
      <trkpt lat="40.82589" lon="-77.84488">
        <ele>326.5</ele>
      </trkpt>
      <trkpt lat="40.82507" lon="-77.84537">
        <ele>328.4</ele>
      </trkpt>
      <trkpt lat="40.82426" lon="-77.84585">
        <ele>325.2</ele>
      </trkpt>
      <trkpt lat="40.82345" lon="-77.84634">
        <ele>325.1</ele>
      </trkpt>
      <trkpt lat="40.82263" lon="-77.84682">
        <ele>327.4</ele>
      </trkpt>
      <trkpt lat="40.82182" lon="-77.84731">
        <ele>327.3</ele>
      </trkpt>
      <trkpt lat="40.82182" lon="-77.84731">
        <ele>327.3</ele>
      </trkpt>
      <trkpt lat="40.82126" lon="-77.84765">
        <ele>326.7</ele>
      </trkpt>
      <trkpt lat="40.82062" lon="-77.84811">
        <ele>329.6</ele>
      </trkpt>
      <trkpt lat="40.82047" lon="-77.84813">
        <ele>329.9</ele>
      </trkpt>
      <trkpt lat="40.81992" lon="-77.84861">
        <ele>335.9</ele>
      </trkpt>
      <trkpt lat="40.8192" lon="-77.84933">
        <ele>341.0</ele>
      </trkpt>
      <trkpt lat="40.81858" lon="-77.85008">
        <ele>336.0</ele>
      </trkpt>
      <trkpt lat="40.81827" lon="-77.85051">
        <ele>330.6</ele>
      </trkpt>
      <trkpt lat="40.81798" lon="-77.85093">
        <ele>325.9</ele>
      </trkpt>
      <trkpt lat="40.81743" lon="-77.85183">
        <ele>328.4</ele>
      </trkpt>
      <trkpt lat="40.81688" lon="-77.85274">
        <ele>331.2</ele>
      </trkpt>
      <trkpt lat="40.81633" lon="-77.85364">
        <ele>333.9</ele>
      </trkpt>
      <trkpt lat="40.81577" lon="-77.85454">
        <ele>337.5</ele>
      </trkpt>
      <trkpt lat="40.81522" lon="-77.85544">
        <ele>340.1</ele>
      </trkpt>
      <trkpt lat="40.81467" lon="-77.85635">
        <ele>339.5</ele>
      </trkpt>
      <trkpt lat="40.81412" lon="-77.85725">
        <ele>341.9</ele>
      </trkpt>
      <trkpt lat="40.81412" lon="-77.85725">
        <ele>341.9</ele>
      </trkpt>
      <trkpt lat="40.81369" lon="-77.85793">
        <ele>344.1</ele>
      </trkpt>
      <trkpt lat="40.81327" lon="-77.85862">
        <ele>343.2</ele>
      </trkpt>
      <trkpt lat="40.81294" lon="-77.85915">
        <ele>345.5</ele>
      </trkpt>
      <trkpt lat="40.8126" lon="-77.85967">
        <ele>347.5</ele>
      </trkpt>
      <trkpt lat="40.81205" lon="-77.86039">
        <ele>348.6</ele>
      </trkpt>
      <trkpt lat="40.8125" lon="-77.86109">
        <ele>352.4</ele>
      </trkpt>
      <trkpt lat="40.81295" lon="-77.86179">
        <ele>353.0</ele>
      </trkpt>
      <trkpt lat="40.81295" lon="-77.86179">
        <ele>353.0</ele>
      </trkpt>
      <trkpt lat="40.81319" lon="-77.86217">
        <ele>354.2</ele>
      </trkpt>
      <trkpt lat="40.81331" lon="-77.86242">
        <ele>355.4</ele>
      </trkpt>
      <trkpt lat="40.81338" lon="-77.86266">
        <ele>355.5</ele>
      </trkpt>
      <trkpt lat="40.81332" lon="-77.86276">
        <ele>355.0</ele>
      </trkpt>
      <trkpt lat="40.81326" lon="-77.86283">
        <ele>354.8</ele>
      </trkpt>
      <trkpt lat="40.81295" lon="-77.86303">
        <ele>354.7</ele>
      </trkpt>
      <trkpt lat="40.81226" lon="-77.86343">
        <ele>355.4</ele>
      </trkpt>
      <trkpt lat="40.81158" lon="-77.86382">
        <ele>354.1</ele>
      </trkpt>
      <trkpt lat="40.81089" lon="-77.86421">
        <ele>355.0</ele>
      </trkpt>
      <trkpt lat="40.8112" lon="-77.86512">
        <ele>354.8</ele>
      </trkpt>
      <trkpt lat="40.81138" lon="-77.86568">
        <ele>354.8</ele>
      </trkpt>
      <trkpt lat="40.81093" lon="-77.86593">
        <ele>354.8</ele>
      </trkpt>
      <trkpt lat="40.81047" lon="-77.86619">
        <ele>354.8</ele>
      </trkpt>
      <trkpt lat="40.80973" lon="-77.86663">
        <ele>356.0</ele>
      </trkpt>
      <trkpt lat="40.80899" lon="-77.86708">
        <ele>355.8</ele>
      </trkpt>
      <trkpt lat="40.80825" lon="-77.86752">
        <ele>357.7</ele>
      </trkpt>
      <trkpt lat="40.80751" lon="-77.86797">
        <ele>357.0</ele>
      </trkpt>
      <trkpt lat="40.8074" lon="-77.86802">
        <ele>357.8</ele>
      </trkpt>
      <trkpt lat="40.80727" lon="-77.86805">
        <ele>358.8</ele>
      </trkpt>
      <trkpt lat="40.8072" lon="-77.86804">
        <ele>359.4</ele>
      </trkpt>
      <trkpt lat="40.80715" lon="-77.86792">
        <ele>359.8</ele>
      </trkpt>
      <trkpt lat="40.80685" lon="-77.86704">
        <ele>359.0</ele>
      </trkpt>
      <trkpt lat="40.80685" lon="-77.86704">
        <ele>359.0</ele>
      </trkpt>
      <trkpt lat="40.80655" lon="-77.86618">
        <ele>356.1</ele>
      </trkpt>
      <trkpt lat="40.80625" lon="-77.86532">
        <ele>356.0</ele>
      </trkpt>
      <trkpt lat="40.80592" lon="-77.8646">
        <ele>359.1</ele>
      </trkpt>
      <trkpt lat="40.80543" lon="-77.86495">
        <ele>362.5</ele>
      </trkpt>
      <trkpt lat="40.80488" lon="-77.86543">
        <ele>362.7</ele>
      </trkpt>
      <trkpt lat="40.80433" lon="-77.86591">
        <ele>362.8</ele>
      </trkpt>
      <trkpt lat="40.80379" lon="-77.86638">
        <ele>363.1</ele>
      </trkpt>
      <trkpt lat="40.80379" lon="-77.86638">
        <ele>363.1</ele>
      </trkpt>
      <trkpt lat="40.80352" lon="-77.86661">
        <ele>362.5</ele>
      </trkpt>
      <trkpt lat="40.80314" lon="-77.86594">
        <ele>366.0</ele>
      </trkpt>
      <trkpt lat="40.80277" lon="-77.86528">
        <ele>366.9</ele>
      </trkpt>
      <trkpt lat="40.80277" lon="-77.86528">
        <ele>366.9</ele>
      </trkpt>
      <trkpt lat="40.80235" lon="-77.86451">
        <ele>369.6</ele>
      </trkpt>
      <trkpt lat="40.80192" lon="-77.86375">
        <ele>368.9</ele>
      </trkpt>
      <trkpt lat="40.80133" lon="-77.86432">
        <ele>371.4</ele>
      </trkpt>
      <trkpt lat="40.80073" lon="-77.8649">
        <ele>370.7</ele>
      </trkpt>
      <trkpt lat="40.80073" lon="-77.8649">
        <ele>370.7</ele>
      </trkpt>
      <trkpt lat="40.80073" lon="-77.8649">
        <ele>370.7</ele>
      </trkpt>
      <trkpt lat="40.80013" lon="-77.86547">
        <ele>373.3</ele>
      </trkpt>
      <trkpt lat="40.80002" lon="-77.86554">
        <ele>372.8</ele>
      </trkpt>
      <trkpt lat="40.79983" lon="-77.86562">
        <ele>372.1</ele>
      </trkpt>
      <trkpt lat="40.79931" lon="-77.86568">
        <ele>371.8</ele>
      </trkpt>
      <trkpt lat="40.79889" lon="-77.86575">
        <ele>371.3</ele>
      </trkpt>
      <trkpt lat="40.79868" lon="-77.86584">
        <ele>372.6</ele>
      </trkpt>
      <trkpt lat="40.79853" lon="-77.86595">
        <ele>374.0</ele>
      </trkpt>
      <trkpt lat="40.79822" lon="-77.86634">
        <ele>372.4</ele>
      </trkpt>
      <trkpt lat="40.79774" lon="-77.86698">
        <ele>371.1</ele>
      </trkpt>
      <trkpt lat="40.79726" lon="-77.86762">
        <ele>373.0</ele>
      </trkpt>
      <trkpt lat="40.79677" lon="-77.86826">
        <ele>372.2</ele>
      </trkpt>
      <trkpt lat="40.79671" lon="-77.86833">
        <ele>371.7</ele>
      </trkpt>
      <trkpt lat="40.79649" lon="-77.86845">
        <ele>370.3</ele>
      </trkpt>
      <trkpt lat="40.79625" lon="-77.86845">
        <ele>370.2</ele>
      </trkpt>
      <trkpt lat="40.79613" lon="-77.8684">
        <ele>370.0</ele>
      </trkpt>
      <trkpt lat="40.79603" lon="-77.86832">
        <ele>369.6</ele>
      </trkpt>
      <trkpt lat="40.79594" lon="-77.86822">
        <ele>369.1</ele>
      </trkpt>
      <trkpt lat="40.79546" lon="-77.8676">
        <ele>367.6</ele>
      </trkpt>
      <trkpt lat="40.79498" lon="-77.86697">
        <ele>362.6</ele>
      </trkpt>
      <trkpt lat="40.79498" lon="-77.86697">
        <ele>362.6</ele>
      </trkpt>
      <trkpt lat="40.79453" lon="-77.8664">
        <ele>363.4</ele>
      </trkpt>
      <trkpt lat="40.79409" lon="-77.86583">
        <ele>368.1</ele>
      </trkpt>
      <trkpt lat="40.79364" lon="-77.86526">
        <ele>359.8</ele>
      </trkpt>
      <trkpt lat="40.79331" lon="-77.86477">
        <ele>361.2</ele>
      </trkpt>
      <trkpt lat="40.79298" lon="-77.86428">
        <ele>359.6</ele>
      </trkpt>
      <trkpt lat="40.79234" lon="-77.86345">
        <ele>352.9</ele>
      </trkpt>
      <trkpt lat="40.79171" lon="-77.86262">
        <ele>354.3</ele>
      </trkpt>
      <trkpt lat="40.79126" lon="-77.86204">
        <ele>355.1</ele>
      </trkpt>
      <trkpt lat="40.79081" lon="-77.86147">
        <ele>354.0</ele>
      </trkpt>
      <trkpt lat="40.79081" lon="-77.86147">
        <ele>354.0</ele>
      </trkpt>
      <trkpt lat="40.79047" lon="-77.86104">
        <ele>354.1</ele>
      </trkpt>
      <trkpt lat="40.79019" lon="-77.86141">
        <ele>353.8</ele>
      </trkpt>
      <trkpt lat="40.79019" lon="-77.86141">
        <ele>353.8</ele>
      </trkpt>
      <trkpt lat="40.78966" lon="-77.86212">
        <ele>354.3</ele>
      </trkpt>
      <trkpt lat="40.7897" lon="-77.86218">
        <ele>354.3</ele>
      </trkpt>
      <trkpt lat="40.78968" lon="-77.86221">
        <ele>354.3</ele>
      </trkpt>
      <trkpt lat="40.78973" lon="-77.86228">
        <ele>354.2</ele>
      </trkpt>
      <trkpt lat="40.78976" lon="-77.86239">
        <ele>353.8</ele>
      </trkpt>
      <trkpt lat="40.79011" lon="-77.86284">
        <ele>351.8</ele>
      </trkpt>
      <trkpt lat="40.79011" lon="-77.86284">
        <ele>351.8</ele>
      </trkpt>
      <trkpt lat="40.79056" lon="-77.86343">
        <ele>352.9</ele>
      </trkpt>
      <trkpt lat="40.79101" lon="-77.86402">
        <ele>354.1</ele>
      </trkpt>
      <trkpt lat="40.79146" lon="-77.86461">
        <ele>352.2</ele>
      </trkpt>
      <trkpt lat="40.79161" lon="-77.86483">
        <ele>352.5</ele>
      </trkpt>
      <trkpt lat="40.79178" lon="-77.86529">
        <ele>352.9</ele>
      </trkpt>
      <trkpt lat="40.79191" lon="-77.86561">
        <ele>355.5</ele>
      </trkpt>
      <trkpt lat="40.79201" lon="-77.86563">
        <ele>356.5</ele>
      </trkpt>
      <trkpt lat="40.79209" lon="-77.86564">
        <ele>357.2</ele>
      </trkpt>
      <trkpt lat="40.79208" lon="-77.86575">
        <ele>357.4</ele>
      </trkpt>
      <trkpt lat="40.79208" lon="-77.8659">
        <ele>357.6</ele>
      </trkpt>
      <trkpt lat="40.79237" lon="-77.86643">
        <ele>356.8</ele>
      </trkpt>
      <trkpt lat="40.79266" lon="-77.86696">
        <ele>353.6</ele>
      </trkpt>
      <trkpt lat="40.79305" lon="-77.8676">
        <ele>356.0</ele>
      </trkpt>
      <trkpt lat="40.79305" lon="-77.8676">
        <ele>356.0</ele>
      </trkpt>
      <trkpt lat="40.79336" lon="-77.86802">
        <ele>358.3</ele>
      </trkpt>
      <trkpt lat="40.79352" lon="-77.8682">
        <ele>358.2</ele>
      </trkpt>
      <trkpt lat="40.79377" lon="-77.86845">
        <ele>357.8</ele>
      </trkpt>
      <trkpt lat="40.79418" lon="-77.86879">
        <ele>358.7</ele>
      </trkpt>
      <trkpt lat="40.79458" lon="-77.86913">
        <ele>363.4</ele>
      </trkpt>
      <trkpt lat="40.79424" lon="-77.86961">
        <ele>359.4</ele>
      </trkpt>
      <trkpt lat="40.79389" lon="-77.87008">
        <ele>359.9</ele>
      </trkpt>
      <trkpt lat="40.79353" lon="-77.87058">
        <ele>361.0</ele>
      </trkpt>
      <trkpt lat="40.79317" lon="-77.87108">
        <ele>363.7</ele>
      </trkpt>
      <trkpt lat="40.79265" lon="-77.87173">
        <ele>364.1</ele>
      </trkpt>
      <trkpt lat="40.79254" lon="-77.8718">
        <ele>364.1</ele>
      </trkpt>
      <trkpt lat="40.79246" lon="-77.87182">
        <ele>364.1</ele>
      </trkpt>
      <trkpt lat="40.79223" lon="-77.87174">
        <ele>363.7</ele>
      </trkpt>
      <trkpt lat="40.79207" lon="-77.87172">
        <ele>363.8</ele>
      </trkpt>
      <trkpt lat="40.79194" lon="-77.87176">
        <ele>364.2</ele>
      </trkpt>
      <trkpt lat="40.79185" lon="-77.87185">
        <ele>364.7</ele>
      </trkpt>
      <trkpt lat="40.79137" lon="-77.87248">
        <ele>363.9</ele>
      </trkpt>
      <trkpt lat="40.79133" lon="-77.8725">
        <ele>364.0</ele>
      </trkpt>
      <trkpt lat="40.7913" lon="-77.87249">
        <ele>364.0</ele>
      </trkpt>
      <trkpt lat="40.79125" lon="-77.87242">
        <ele>364.3</ele>
      </trkpt>
      <trkpt lat="40.79125" lon="-77.87242">
        <ele>364.3</ele>
      </trkpt>
      <trkpt lat="40.79124" lon="-77.87239">
        <ele>364.5</ele>
      </trkpt>
      <trkpt lat="40.79127" lon="-77.8723">
        <ele>364.5</ele>
      </trkpt>
      <trkpt lat="40.7913" lon="-77.87226">
        <ele>364.4</ele>
      </trkpt>
    </trkseg>
  </trk>
</gpx>
