{"type":"FeatureCollection","features":[{"type":"Feature","properties":{"route":{"route_id":"98","agency_id":"0","route_short_name":"SY","route_long_name":"SY","route_desc":null,"route_type":3,"route_url":null,"route_color":"29CBCC","route_text_color":"000000","route_sort_order":0,"continuous_pickup":null,"continuous_drop_off":null,"network_id":null},"routeAttributes":[]},"geometry":{"type":"LineString","coordinates":[[-77.86155,40.79456],[-77.86617,40.79103],[-77.86939,40.78862],[-77.8717,40.78683],[-77.87624,40.78304],[-77.87802,40.78158],[-77.87433,40.77732],[-77.87058,40.77968],[-77.86656,40.78184],[-77.86299,40.78205],[-77.85853,40.78237],[-77.85401,40.78259],[-77.85126,40.78587],[-77.8492,40.78894],[-77.85039,40.79],[-77.85323,40.79136],[-77.85805,40.79377],[-77.85639,40.79629],[-77.85806,40.7972],[-77.86155,40.79456]]}},{"type":"Feature","properties":{"route":{"route_id":"72","agency_id":"0","route_short_name":"H","route_long_name":"Toftrees","route_desc":null,"route_type":3,"route_url":null,"route_color":"9966FF","route_text_color":"ffffff","route_sort_order":6,"continuous_pickup":null,"continuous_drop_off":null,"network_id":null},"routeAttributes":[]},"geometry":{"type":"LineString","coordinates":[[-77.86155,40.79456],[-77.86681,40.79267],[-77.86672,40.79784],[-77.86465,40.80088],[-77.85871,40.80713],[-77.85581,40.81014],[-77.85526,40.81384],[-77.859,40.81801],[-77.86739,40.82272],[-77.87275,40.82391],[-77.87317,40.82542],[-77.87939,40.8264],[-77.8805,40.82592],[-77.88657,40.82406],[-77.88387,40.82319],[-77.88023,40.82601],[-77.88104,40.82764],[-77.88218,40.83138],[-77.88379,40.83227],[-77.88588,40.83115],[-77.88697,40.8299],[-77.88868,40.82854],[-77.89093,40.82773],[-77.8931,40.82581],[-77.89377,40.82387],[-77.89657,40.82333],[-77.89865,40.82307],[-77.90249,40.81466],[-77.90559,40.81173],[-77.9069,40.8107],[-77.90634,40.80916],[-77.90409,40.80893],[-77.90113,40.80944],[-77.9022,40.80958]]}},{"type":"Feature","properties":{"route":{"route_id":"71","agency_id":"0","route_short_name":"Atherton Connector","route_long_name":"Atherton Street Connector","route_desc":null,"route_type":3,"route_url":null,"route_color":"00B050","route_text_color":"FFFFFF","route_sort_order":0,"continuous_pickup":null,"continuous_drop_off":null,"network_id":null},"routeAttributes":[]},"geometry":{"type":"LineString","coordinates":[[-77.90533,40.81162],[-77.90202,40.81468],[-77.89785,40.81436],[-77.89636,40.80904],[-77.89366,40.80765],[-77.88907,40.80614],[-77.87804,40.80027],[-77.87484,40.79812],[-77.8683,40.79596],[-77.86604,40.79422],[-77.86325,40.79214],[-77.85991,40.79366],[-77.85781,40.79357],[-77.85609,40.79268],[-77.85326,40.79128],[-77.85077,40.79009],[-77.84941,40.78898],[-77.8494,40.78815],[-77.8488,40.7855],[-77.84715,40.78438],[-77.84432,40.78435],[-77.84162,40.78465],[-77.8387,40.78376],[-77.83871,40.78456],[-77.83458,40.78512],[-77.82915,40.78571],[-77.82353,40.78617],[-77.82018,40.78492],[-77.82366,40.78626],[-77.82918,40.78643]]}},{"type":"Feature","properties":{"route":{"route_id":"70","agency_id":"0","route_short_name":"College Connector","route_long_name":"College Avenue Connector","route_desc":null,"route_type":3,"route_url":null,"route_color":"000099","route_text_color":"ffffff","route_sort_order":5,"continuous_pickup":null,"continuous_drop_off":null,"network_id":null},"routeAttributes":[]},"geometry":{"type":"LineString","coordinates":[[-77.80072,40.83367],[-77.80323,40.83814],[-77.8074,40.83805],[-77.81384,40.83268],[-77.8127,40.83213],[-77.80998,40.83405],[-77.80541,40.83317],[-77.80595,40.83242],[-77.80662,40.83143],[-77.80506,40.83026],[-77.8075,40.82755],[-77.81219,40.82398],[-77.8146,40.82205],[-77.81846,40.81723],[-77.81889,40.81504],[-77.81913,40.81369],[-77.8184,40.81136],[-77.81875,40.80983],[-77.82207,40.81013],[-77.82455,40.81029],[-77.82837,40.8104],[-77.8327,40.8098],[-77.83629,40.8081],[-77.84061,40.80626],[-77.85806,40.7972],[-77.86155,40.79456],[-77.86617,40.79103],[-77.86939,40.78862],[-77.87198,40.78622],[-77.86745,40.78802],[-77.85991,40.79366]]}},{"type":"Feature","properties":{"route":{"route_id":"57","agency_id":"0","route_short_name":"WL","route_long_name":"White Loop","route_desc":null,"route_type":3,"route_url":null,"route_color":"0d0d0d","route_text_color":"ffffff","route_sort_order":31,"continuous_pickup":null,"continuous_drop_off":null,"network_id":null},"routeAttributes":[]},"geometry":{"type":"LineString","coordinates":[[-77.85991,40.79366],[-77.85297,40.79886],[-77.85152,40.80123],[-77.85201,40.80462],[-77.85592,40.80741],[-77.859,40.807],[-77.86076,40.80513],[-77.86477,40.80094],[-77.86752,40.79739],[-77.8683,40.79596],[-77.86604,40.79422],[-77.86325,40.79214],[-77.85991,40.79366]]}},{"type":"Feature","properties":{"route":{"route_id":"55","agency_id":"0","route_short_name":"BL","route_long_name":"Blue Loop","route_desc":null,"route_type":3,"route_url":null,"route_color":"0000FF","route_text_color":"FFFFFF","route_sort_order":30,"continuous_pickup":null,"continuous_drop_off":null,"network_id":null},"routeAttributes":[]},"geometry":{"type":"LineString","coordinates":[[-77.8528,40.8111],[-77.8486,40.80769],[-77.85108,40.80509],[-77.85278,40.8047],[-77.85712,40.80259],[-77.85906,40.80127],[-77.85899,40.79905],[-77.85806,40.7972],[-77.86155,40.79456],[-77.86681,40.79267],[-77.86672,40.79784],[-77.86465,40.80088],[-77.85871,40.80713],[-77.85581,40.81014],[-77.8528,40.8111]]}},{"type":"Feature","properties":{"route":{"route_id":"46","agency_id":"0","route_short_name":"W","route_long_name":"Valley Vista","route_desc":null,"route_type":3,"route_url":null,"route_color":"FF99CC","route_text_color":"000000","route_sort_order":21,"continuous_pickup":null,"continuous_drop_off":null,"network_id":null},"routeAttributes":[]},"geometry":{"type":"LineString","coordinates":[[-77.86672,40.79784],[-77.86465,40.80088],[-77.86095,40.80391],[-77.85906,40.80127],[-77.85899,40.79905],[-77.85806,40.7972],[-77.86155,40.79456],[-77.86681,40.79267],[-77.87449,40.79806],[-77.87983,40.80141],[-77.88486,40.80306],[-77.88596,40.80256],[-77.88692,40.79873],[-77.8951,40.78895],[-77.89801,40.79083],[-77.89882,40.79153],[-77.90365,40.7904],[-77.90773,40.79077],[-77.91031,40.79328],[-77.91371,40.79545],[-77.91901,40.79972],[-77.92383,40.80557],[-77.92272,40.8095],[-77.92548,40.80882],[-77.92359,40.81052],[-77.91908,40.81337],[-77.91776,40.81377],[-77.94165,40.81444],[-77.92378,40.81082]]}},{"type":"Feature","properties":{"route":{"route_id":"43","agency_id":"0","route_short_name":"V","route_long_name":"Vairo Boulevard","route_desc":null,"route_type":3,"route_url":null,"route_color":"FF6600","route_text_color":"FFFFFF","route_sort_order":18,"continuous_pickup":null,"continuous_drop_off":null,"network_id":null},"routeAttributes":[]},"geometry":{"type":"LineString","coordinates":[[-77.90533,40.81162],[-77.90202,40.81468],[-77.89677,40.8162],[-77.89621,40.81807],[-77.89322,40.81873],[-77.8896,40.81894],[-77.88919,40.81736],[-77.88796,40.81627],[-77.88646,40.81588],[-77.88463,40.81552],[-77.88627,40.81246],[-77.89024,40.81027],[-77.89636,40.80904],[-77.89366,40.80765],[-77.88907,40.80614],[-77.87804,40.80027],[-77.87484,40.79812],[-77.86672,40.79784],[-77.86465,40.80088],[-77.86095,40.80391],[-77.85906,40.80127],[-77.85899,40.79905],[-77.85806,40.7972],[-77.86155,40.79456],[-77.86681,40.79267],[-77.87449,40.79806],[-77.87983,40.80141],[-77.88365,40.80345],[-77.88693,40.80516],[-77.88871,40.80615],[-77.89262,40.80767],[-77.8962,40.80889],[-77.89145,40.80985],[-77.89059,40.81],[-77.88628,40.81222],[-77.88426,40.81544],[-77.88727,40.81627],[-77.889,40.81745],[-77.88955,40.81908],[-77.89325,40.81886],[-77.89638,40.81812],[-77.89687,40.81632],[-77.90249,40.81466],[-77.90559,40.81173]]}},{"type":"Feature","properties":{"route":{"route_id":"34","agency_id":"0","route_short_name":"RP","route_long_name":"RP","route_desc":null,"route_type":3,"route_url":null,"route_color":"ad146e","route_text_color":"ffffff","route_sort_order":14,"continuous_pickup":null,"continuous_drop_off":null,"network_id":null},"routeAttributes":[]},"geometry":{"type":"LineString","coordinates":[[-77.85907,40.76773],[-77.86205,40.77083],[-77.86386,40.77199],[-77.86211,40.77315],[-77.86062,40.77455],[-77.85841,40.77526],[-77.85626,40.77559],[-77.85458,40.77761],[-77.85395,40.77982],[-77.85024,40.78202],[-77.84852,40.78383],[-77.84715,40.78438],[-77.84488,40.78502],[-77.84747,40.78735],[-77.8492,40.78894],[-77.85039,40.79],[-77.85323,40.79136],[-77.85805,40.79377],[-77.86155,40.79456]]}},{"type":"Feature","properties":{"route":{"route_id":"31","agency_id":"0","route_short_name":"R","route_long_name":"Waupelani Dr","route_desc":null,"route_type":3,"route_url":null,"route_color":"FF99CC","route_text_color":"000000","route_sort_order":13,"continuous_pickup":null,"continuous_drop_off":null,"network_id":null},"routeAttributes":[]},"geometry":{"type":"LineString","coordinates":[[-77.86672,40.79784],[-77.86465,40.80088],[-77.86095,40.80391],[-77.85906,40.80127],[-77.85899,40.79905],[-77.85806,40.7972],[-77.86155,40.79456],[-77.8642,40.79109],[-77.86038,40.78816],[-77.85542,40.78592],[-77.84904,40.78474],[-77.84873,40.7836],[-77.85016,40.78227],[-77.85308,40.7807],[-77.85425,40.7796],[-77.85471,40.77789],[-77.85663,40.77533],[-77.85708,40.77425],[-77.85977,40.77267],[-77.86208,40.77107],[-77.85907,40.76773],[-77.87622,40.76101],[-77.87948,40.76343],[-77.87806,40.76426],[-77.87563,40.76214]]}},{"type":"Feature","properties":{"route":{"route_id":"26","agency_id":"0","route_short_name":"VN","route_long_name":"VN","route_desc":null,"route_type":3,"route_url":null,"route_color":"B58EF6","route_text_color":"000000","route_sort_order":0,"continuous_pickup":null,"continuous_drop_off":null,"network_id":null},"routeAttributes":[]},"geometry":{"type":"LineString","coordinates":[[-77.85991,40.79366],[-77.85297,40.79886],[-77.85152,40.80123],[-77.85201,40.80462],[-77.85592,40.80741],[-77.85581,40.81014],[-77.85526,40.81384],[-77.859,40.81801],[-77.86739,40.82272],[-77.8805,40.82592],[-77.88657,40.82406],[-77.88387,40.82319],[-77.88023,40.82601],[-77.88104,40.82764],[-77.88218,40.83138],[-77.88379,40.83227],[-77.88588,40.83115],[-77.88697,40.8299],[-77.88868,40.82854],[-77.89093,40.82773],[-77.8931,40.82581],[-77.89377,40.82387],[-77.89657,40.82333],[-77.89865,40.82307],[-77.89677,40.8162],[-77.89621,40.81807],[-77.89322,40.81873],[-77.8896,40.81894],[-77.88919,40.81736],[-77.88796,40.81627],[-77.88646,40.81588],[-77.88463,40.81552],[-77.88627,40.81246],[-77.89024,40.81027],[-77.89636,40.80904],[-77.9022,40.80958],[-77.9069,40.8107],[-77.90634,40.80916],[-77.90409,40.80893],[-77.89131,40.80442],[-77.88881,40.80295],[-77.88728,40.80187],[-77.88692,40.79873],[-77.89489,40.78879],[-77.87948,40.78005],[-77.87795,40.78138],[-77.87416,40.78462],[-77.87198,40.78622],[-77.86745,40.78802],[-77.85991,40.79366]]}},{"type":"Feature","properties":{"route":{"route_id":"25","agency_id":"0","route_short_name":"NV","route_long_name":"NV","route_desc":null,"route_type":3,"route_url":null,"route_color":"635f5f","route_text_color":"ffffff","route_sort_order":10,"continuous_pickup":null,"continuous_drop_off":null,"network_id":null},"routeAttributes":[]},"geometry":{"type":"LineString","coordinates":[[-77.86155,40.79456],[-77.86617,40.79103],[-77.86939,40.78862],[-77.8717,40.78683],[-77.87624,40.78304],[-77.87802,40.78158],[-77.88051,40.78013],[-77.8951,40.78895],[-77.89801,40.79083],[-77.89882,40.79153],[-77.89745,40.79339],[-77.89432,40.79581],[-77.89111,40.79661],[-77.88733,40.80214],[-77.88869,40.80308],[-77.89066,40.80417],[-77.89216,40.80517],[-77.89592,40.80432],[-77.89816,40.80263],[-77.90023,40.80132],[-77.90135,40.80251],[-77.90441,40.80478],[-77.90522,40.80663],[-77.90338,40.80748],[-77.9022,40.80837],[-77.8962,40.80889],[-77.89145,40.80985],[-77.89059,40.81],[-77.88628,40.81222],[-77.88426,40.81544],[-77.88727,40.81627],[-77.89056,40.81651],[-77.89687,40.81632],[-77.89859,40.82294],[-77.89653,40.82323],[-77.89366,40.82376],[-77.88946,40.82363],[-77.88657,40.82406]]}},{"type":"Feature","properties":{"route":{"route_id":"22","agency_id":"0","route_short_name":"N","route_long_name":"Martin St/Aaron Dr","route_desc":null,"route_type":3,"route_url":null,"route_color":"00B0F0","route_text_color":"ffffff","route_sort_order":9,"continuous_pickup":null,"continuous_drop_off":null,"network_id":null},"routeAttributes":[]},"geometry":{"type":"LineString","coordinates":[[-77.90559,40.81173],[-77.9069,40.8107],[-77.90634,40.80916],[-77.90409,40.80893],[-77.90228,40.8085],[-77.90357,40.80754],[-77.90534,40.8066],[-77.90457,40.80479],[-77.90159,40.80256],[-77.90033,40.80125],[-77.89898,40.80188],[-77.89584,40.80422],[-77.89131,40.80442],[-77.88881,40.80295],[-77.88728,40.80187],[-77.88583,40.80256],[-77.88217,40.80247],[-77.87804,40.80027],[-77.87484,40.79812],[-77.86672,40.79784],[-77.86465,40.80088],[-77.86095,40.80391],[-77.85906,40.80127],[-77.85899,40.79905],[-77.85806,40.7972],[-77.86155,40.79456],[-77.86681,40.79267],[-77.87449,40.79806],[-77.87983,40.80141],[-77.88486,40.80306],[-77.88596,40.80256],[-77.88733,40.80214],[-77.88869,40.80308],[-77.89066,40.80417],[-77.89216,40.80517],[-77.89592,40.80432],[-77.89816,40.80263],[-77.90023,40.80132],[-77.90135,40.80251],[-77.90441,40.80478],[-77.90522,40.80663],[-77.90338,40.80748],[-77.9022,40.80837],[-77.90113,40.80944],[-77.9022,40.80958],[-77.9075,40.8095],[-77.90682,40.81051],[-77.90533,40.81162]]}}]}