<gpx xmlns="http://www.topografix.com/GPX/1/1" xmlns:xsi="http://www.w3.org/2001/XMLSchema-instance" xsi:schemaLocation="http://www.topografix.com/GPX/1/1 http://www.topografix.com/GPX/1/1/gpx.xsd" version="1.1" creator="togpx"><metadata/><trk><name></name><desc>ascent=128.9
descent=85.6
transfers=0
fare=0
opacity=0.9</desc><trkseg><trkpt lat="40.832861" lon="-77.80343"><ele>340.9</ele></trkpt><trkpt lat="40.832847" lon="-77.80344"><ele>341.1</ele></trkpt><trkpt lat="40.832633" lon="-77.80356"><ele>341.8</ele></trkpt><trkpt lat="40.832403" lon="-77.803692"><ele>342.2</ele></trkpt><trkpt lat="40.832145" lon="-77.803844"><ele>342.5</ele></trkpt><trkpt lat="40.831706" lon="-77.804098"><ele>342.7</ele></trkpt><trkpt lat="40.831624" lon="-77.804141"><ele>342.7</ele></trkpt><trkpt lat="40.831292" lon="-77.804321"><ele>342.4</ele></trkpt><trkpt lat="40.830901" lon="-77.804539"><ele>342.1</ele></trkpt><trkpt lat="40.830474" lon="-77.804777"><ele>341.4</ele></trkpt><trkpt lat="40.829898" lon="-77.805095"><ele>340.5</ele></trkpt><trkpt lat="40.829662" lon="-77.805226"><ele>340.2</ele></trkpt><trkpt lat="40.829238" lon="-77.805462"><ele>340</ele></trkpt><trkpt lat="40.828785" lon="-77.805744"><ele>339.9</ele></trkpt><trkpt lat="40.828402" lon="-77.806073"><ele>339.7</ele></trkpt><trkpt lat="40.828133" lon="-77.806388"><ele>339.5</ele></trkpt><trkpt lat="40.827867" lon="-77.806751"><ele>339.3</ele></trkpt><trkpt lat="40.827714" lon="-77.806987"><ele>339.2</ele></trkpt><trkpt lat="40.827375" lon="-77.807513"><ele>339</ele></trkpt><trkpt lat="40.826662" lon="-77.808474"><ele>337.8</ele></trkpt><trkpt lat="40.826385" lon="-77.808853"><ele>337</ele></trkpt><trkpt lat="40.825976" lon="-77.809389"><ele>335.8</ele></trkpt><trkpt lat="40.82486" lon="-77.810879"><ele>331</ele></trkpt><trkpt lat="40.824088" lon="-77.811837"><ele>327</ele></trkpt><trkpt lat="40.823987" lon="-77.811935"><ele>326.7</ele></trkpt><trkpt lat="40.823609" lon="-77.812417"><ele>326.1</ele></trkpt><trkpt lat="40.822924" lon="-77.813267"><ele>327.7</ele></trkpt><trkpt lat="40.822751" lon="-77.813484"><ele>327.4</ele></trkpt><trkpt lat="40.822359" lon="-77.813975"><ele>325.6</ele></trkpt><trkpt lat="40.8218" lon="-77.81466"><ele>322.5</ele></trkpt><trkpt lat="40.821313" lon="-77.815238"><ele>320.3</ele></trkpt><trkpt lat="40.821067" lon="-77.815494"><ele>320.5</ele></trkpt><trkpt lat="40.819274" lon="-77.817286"><ele>316.6</ele></trkpt><trkpt lat="40.819018" lon="-77.817501"><ele>315.6</ele></trkpt><trkpt lat="40.818877" lon="-77.817756"><ele>314.8</ele></trkpt><trkpt lat="40.818575" lon="-77.818102"><ele>312.6</ele></trkpt><trkpt lat="40.818317" lon="-77.818447"><ele>310.1</ele></trkpt><trkpt lat="40.818192" lon="-77.818514"><ele>309.6</ele></trkpt><trkpt lat="40.818149" lon="-77.818613"><ele>309</ele></trkpt><trkpt lat="40.817948" lon="-77.818418"><ele>308</ele></trkpt><trkpt lat="40.817742" lon="-77.818282"><ele>307</ele></trkpt><trkpt lat="40.817537" lon="-77.818289"><ele>306.1</ele></trkpt><trkpt lat="40.817217" lon="-77.818391"><ele>304.7</ele></trkpt><trkpt lat="40.81666" lon="-77.818781"><ele>303.2</ele></trkpt><trkpt lat="40.816432" lon="-77.818913"><ele>303</ele></trkpt><trkpt lat="40.816281" lon="-77.818986"><ele>303.1</ele></trkpt><trkpt lat="40.816032" lon="-77.819065"><ele>303.3</ele></trkpt><trkpt lat="40.815798" lon="-77.819044"><ele>303.7</ele></trkpt><trkpt lat="40.815294" lon="-77.818862"><ele>305.5</ele></trkpt><trkpt lat="40.814979" lon="-77.818795"><ele>306.8</ele></trkpt><trkpt lat="40.814614" lon="-77.818777"><ele>308.6</ele></trkpt><trkpt lat="40.81425" lon="-77.818785"><ele>309.8</ele></trkpt><trkpt lat="40.814147" lon="-77.818801"><ele>309.8</ele></trkpt><trkpt lat="40.814048" lon="-77.818841"><ele>309.7</ele></trkpt><trkpt lat="40.813511" lon="-77.819179"><ele>308.3</ele></trkpt><trkpt lat="40.813311" lon="-77.81927"><ele>307.7</ele></trkpt><trkpt lat="40.813144" lon="-77.8193"><ele>307.3</ele></trkpt><trkpt lat="40.812978" lon="-77.81928"><ele>307</ele></trkpt><trkpt lat="40.812822" lon="-77.819205"><ele>306.8</ele></trkpt><trkpt lat="40.812467" lon="-77.818812"><ele>305.8</ele></trkpt><trkpt lat="40.812255" lon="-77.818619"><ele>305.9</ele></trkpt><trkpt lat="40.811992" lon="-77.818497"><ele>306.6</ele></trkpt><trkpt lat="40.811664" lon="-77.818408"><ele>307.3</ele></trkpt><trkpt lat="40.811387" lon="-77.818361"><ele>308.1</ele></trkpt><trkpt lat="40.811114" lon="-77.818368"><ele>308.8</ele></trkpt><trkpt lat="40.810718" lon="-77.818483"><ele>309.6</ele></trkpt><trkpt lat="40.810558" lon="-77.818509"><ele>309.8</ele></trkpt><trkpt lat="40.810111" lon="-77.818605"><ele>310.2</ele></trkpt><trkpt lat="40.810091" lon="-77.818609"><ele>312.3</ele></trkpt><trkpt lat="40.809685" lon="-77.818741"><ele>313.6</ele></trkpt><trkpt lat="40.809086" lon="-77.818951"><ele>311.7</ele></trkpt><trkpt lat="40.808895" lon="-77.819041"><ele>310.9</ele></trkpt><trkpt lat="40.80968" lon="-77.820486"><ele>306.5</ele></trkpt><trkpt lat="40.809773" lon="-77.820657"><ele>306.2</ele></trkpt><trkpt lat="40.809934" lon="-77.820938"><ele>306</ele></trkpt><trkpt lat="40.809964" lon="-77.821002"><ele>306.2</ele></trkpt><trkpt lat="40.810023" lon="-77.821172"><ele>306.3</ele></trkpt><trkpt lat="40.810061" lon="-77.821385"><ele>306.5</ele></trkpt><trkpt lat="40.810071" lon="-77.822244"><ele>307.5</ele></trkpt><trkpt lat="40.810075" lon="-77.822635"><ele>308</ele></trkpt><trkpt lat="40.810099" lon="-77.823016"><ele>308.4</ele></trkpt><trkpt lat="40.810183" lon="-77.823885"><ele>309</ele></trkpt><trkpt lat="40.810204" lon="-77.824254"><ele>309</ele></trkpt><trkpt lat="40.810217" lon="-77.824813"><ele>309</ele></trkpt><trkpt lat="40.81024" lon="-77.825431"><ele>307.7</ele></trkpt><trkpt lat="40.81029" lon="-77.826992"><ele>302.5</ele></trkpt><trkpt lat="40.810298" lon="-77.827234"><ele>301.3</ele></trkpt><trkpt lat="40.810341" lon="-77.828541"><ele>297.5</ele></trkpt><trkpt lat="40.810346" lon="-77.828677"><ele>297.2</ele></trkpt><trkpt lat="40.810352" lon="-77.82886"><ele>296.8</ele></trkpt><trkpt lat="40.810359" lon="-77.829093"><ele>296.5</ele></trkpt><trkpt lat="40.810363" lon="-77.829199"><ele>296.2</ele></trkpt><trkpt lat="40.810375" lon="-77.82957"><ele>295.3</ele></trkpt><trkpt lat="40.810376" lon="-77.829629"><ele>295.2</ele></trkpt><trkpt lat="40.810393" lon="-77.829704"><ele>295.2</ele></trkpt><trkpt lat="40.810411" lon="-77.82999"><ele>295.3</ele></trkpt><trkpt lat="40.81042" lon="-77.830337"><ele>295.4</ele></trkpt><trkpt lat="40.810445" lon="-77.830439"><ele>295.5</ele></trkpt><trkpt lat="40.810507" lon="-77.830549"><ele>295.5</ele></trkpt><trkpt lat="40.810678" lon="-77.830768"><ele>295.6</ele></trkpt><trkpt lat="40.810501" lon="-77.831107"><ele>295.8</ele></trkpt><trkpt lat="40.810299" lon="-77.831425"><ele>295.8</ele></trkpt><trkpt lat="40.810078" lon="-77.831848"><ele>297.1</ele></trkpt><trkpt lat="40.809982" lon="-77.832055"><ele>298.1</ele></trkpt><trkpt lat="40.809616" lon="-77.832782"><ele>301.6</ele></trkpt><trkpt lat="40.809238" lon="-77.833533"><ele>304.2</ele></trkpt><trkpt lat="40.80912" lon="-77.833766"><ele>298.5</ele></trkpt><trkpt lat="40.808703" lon="-77.834644"><ele>296.7</ele></trkpt><trkpt lat="40.808492" lon="-77.835094"><ele>296.5</ele></trkpt><trkpt lat="40.808135" lon="-77.835868"><ele>297.2</ele></trkpt><trkpt lat="40.807892" lon="-77.836405"><ele>298.7</ele></trkpt><trkpt lat="40.807574" lon="-77.837095"><ele>300.5</ele></trkpt><trkpt lat="40.807227" lon="-77.83786"><ele>301.8</ele></trkpt><trkpt lat="40.806971" lon="-77.838401"><ele>301.7</ele></trkpt><trkpt lat="40.806713" lon="-77.838997"><ele>301.8</ele></trkpt><trkpt lat="40.806387" lon="-77.839826"><ele>302.4</ele></trkpt><trkpt lat="40.805805" lon="-77.841372"><ele>307.3</ele></trkpt><trkpt lat="40.805583" lon="-77.842"><ele>308.9</ele></trkpt><trkpt lat="40.805396" lon="-77.842465"><ele>309.6</ele></trkpt><trkpt lat="40.805347" lon="-77.842642"><ele>309.7</ele></trkpt><trkpt lat="40.804993" lon="-77.843616"><ele>309.5</ele></trkpt><trkpt lat="40.803207" lon="-77.848468"><ele>324</ele></trkpt><trkpt lat="40.803131" lon="-77.848672"><ele>324.4</ele></trkpt><trkpt lat="40.802616" lon="-77.850059"><ele>327.7</ele></trkpt><trkpt lat="40.802302" lon="-77.850879"><ele>328.8</ele></trkpt><trkpt lat="40.80203" lon="-77.851451"><ele>329.7</ele></trkpt><trkpt lat="40.801703" lon="-77.851972"><ele>330.4</ele></trkpt><trkpt lat="40.80148" lon="-77.852285"><ele>330.7</ele></trkpt><trkpt lat="40.801214" lon="-77.852644"><ele>330.8</ele></trkpt><trkpt lat="40.800718" lon="-77.853329"><ele>330.2</ele></trkpt><trkpt lat="40.800334" lon="-77.853855"><ele>330</ele></trkpt><trkpt lat="40.799433" lon="-77.855011"><ele>332.1</ele></trkpt><trkpt lat="40.798838" lon="-77.855787"><ele>334.7</ele></trkpt><trkpt lat="40.798531" lon="-77.856184"><ele>335.5</ele></trkpt><trkpt lat="40.797967" lon="-77.856935"><ele>338</ele></trkpt><trkpt lat="40.797415" lon="-77.857659"><ele>341.2</ele></trkpt><trkpt lat="40.796658" lon="-77.858656"><ele>344.3</ele></trkpt><trkpt lat="40.796263" lon="-77.859179"><ele>344.8</ele></trkpt><trkpt lat="40.796233" lon="-77.859217"><ele>345</ele></trkpt><trkpt lat="40.795306" lon="-77.86045"><ele>346.7</ele></trkpt><trkpt lat="40.794506" lon="-77.861499"><ele>348.8</ele></trkpt><trkpt lat="40.794428" lon="-77.861604"><ele>349</ele></trkpt><trkpt lat="40.793579" lon="-77.862759"><ele>351.5</ele></trkpt><trkpt lat="40.793082" lon="-77.863417"><ele>352.4</ele></trkpt><trkpt lat="40.792979" lon="-77.863553"><ele>352.5</ele></trkpt><trkpt lat="40.792708" lon="-77.863914"><ele>352.8</ele></trkpt><trkpt lat="40.792517" lon="-77.864216"><ele>352.9</ele></trkpt><trkpt lat="40.792304" lon="-77.864502"><ele>353</ele></trkpt><trkpt lat="40.792025" lon="-77.864865"><ele>353.6</ele></trkpt><trkpt lat="40.791742" lon="-77.865201"><ele>354.6</ele></trkpt><trkpt lat="40.791514" lon="-77.865499"><ele>354.8</ele></trkpt><trkpt lat="40.79135" lon="-77.865704"><ele>354.7</ele></trkpt><trkpt lat="40.791333" lon="-77.86573"><ele>354.6</ele></trkpt><trkpt lat="40.790844" lon="-77.866383"><ele>354.2</ele></trkpt><trkpt lat="40.789974" lon="-77.867542"><ele>354.1</ele></trkpt><trkpt lat="40.789785" lon="-77.867778"><ele>354.7</ele></trkpt><trkpt lat="40.789651" lon="-77.867963"><ele>355.3</ele></trkpt><trkpt lat="40.789383" lon="-77.868316"><ele>356</ele></trkpt><trkpt lat="40.7891" lon="-77.868689"><ele>356.1</ele></trkpt><trkpt lat="40.788099" lon="-77.869966"><ele>357.2</ele></trkpt><trkpt lat="40.787633" lon="-77.87056"><ele>359.9</ele></trkpt><trkpt lat="40.787461" lon="-77.870813"><ele>360.5</ele></trkpt><trkpt lat="40.78728" lon="-77.871039"><ele>361.1</ele></trkpt><trkpt lat="40.787174" lon="-77.871171"><ele>361.4</ele></trkpt><trkpt lat="40.787053" lon="-77.871339"><ele>361.6</ele></trkpt><trkpt lat="40.786954" lon="-77.871419"><ele>361.8</ele></trkpt><trkpt lat="40.786375" lon="-77.872154"><ele>362.6</ele></trkpt><trkpt lat="40.78546" lon="-77.873257"><ele>361.2</ele></trkpt><trkpt lat="40.785003" lon="-77.873789"><ele>359.7</ele></trkpt><trkpt lat="40.784886" lon="-77.873926"><ele>359.5</ele></trkpt><trkpt lat="40.784736" lon="-77.8741"><ele>359.1</ele></trkpt><trkpt lat="40.784514" lon="-77.874368"><ele>358.5</ele></trkpt><trkpt lat="40.784431" lon="-77.874432"><ele>358.4</ele></trkpt><trkpt lat="40.784274" lon="-77.874614"><ele>358.2</ele></trkpt><trkpt lat="40.784207" lon="-77.874726"><ele>358.1</ele></trkpt><trkpt lat="40.784138" lon="-77.87483"><ele>358</ele></trkpt><trkpt lat="40.783947" lon="-77.875054"><ele>357.7</ele></trkpt><trkpt lat="40.783848" lon="-77.875141"><ele>357.4</ele></trkpt><trkpt lat="40.783456" lon="-77.875604"><ele>355.6</ele></trkpt><trkpt lat="40.783163" lon="-77.875956"><ele>354.7</ele></trkpt><trkpt lat="40.782914" lon="-77.876249"><ele>354.3</ele></trkpt><trkpt lat="40.782746" lon="-77.876444"><ele>354</ele></trkpt><trkpt lat="40.782598" lon="-77.87662"><ele>353.7</ele></trkpt><trkpt lat="40.782176" lon="-77.877134"><ele>354.1</ele></trkpt><trkpt lat="40.782016" lon="-77.877323"><ele>354.9</ele></trkpt><trkpt lat="40.781945" lon="-77.877407"><ele>355.3</ele></trkpt><trkpt lat="40.780804" lon="-77.878776"><ele>359.9</ele></trkpt><trkpt lat="40.780739" lon="-77.87885"><ele>360</ele></trkpt><trkpt lat="40.780166" lon="-77.879531"><ele>360.4</ele></trkpt><trkpt lat="40.780048" lon="-77.879673"><ele>360.5</ele></trkpt><trkpt lat="40.779657" lon="-77.880142"><ele>361</ele></trkpt><trkpt lat="40.779578" lon="-77.880237"><ele>361.2</ele></trkpt><trkpt lat="40.778732" lon="-77.8813"><ele>360.7</ele></trkpt><trkpt lat="40.778389" lon="-77.881809"><ele>360.2</ele></trkpt><trkpt lat="40.778134" lon="-77.882212"><ele>360</ele></trkpt><trkpt lat="40.77799" lon="-77.882456"><ele>359.9</ele></trkpt><trkpt lat="40.777934" lon="-77.882553"><ele>360</ele></trkpt><trkpt lat="40.777822" lon="-77.882749"><ele>360</ele></trkpt><trkpt lat="40.777622" lon="-77.883109"><ele>360.3</ele></trkpt><trkpt lat="40.777611" lon="-77.883129"><ele>360.4</ele></trkpt><trkpt lat="40.777396" lon="-77.883519"><ele>361.5</ele></trkpt><trkpt lat="40.777338" lon="-77.883626"><ele>361.8</ele></trkpt><trkpt lat="40.776988" lon="-77.88425"><ele>363.4</ele></trkpt><trkpt lat="40.776768" lon="-77.884609"><ele>363.9</ele></trkpt><trkpt lat="40.776546" lon="-77.884932"><ele>364.2</ele></trkpt><trkpt lat="40.776248" lon="-77.885305"><ele>364.6</ele></trkpt><trkpt lat="40.775932" lon="-77.885663"><ele>364.4</ele></trkpt><trkpt lat="40.775643" lon="-77.885957"><ele>364.1</ele></trkpt><trkpt lat="40.775132" lon="-77.886396"><ele>364.1</ele></trkpt><trkpt lat="40.774697" lon="-77.886713"><ele>364.8</ele></trkpt><trkpt lat="40.774178" lon="-77.887013"><ele>365.4</ele></trkpt><trkpt lat="40.773865" lon="-77.887165"><ele>365.6</ele></trkpt><trkpt lat="40.773394" lon="-77.887335"><ele>365.8</ele></trkpt><trkpt lat="40.772926" lon="-77.88746"><ele>366</ele></trkpt><trkpt lat="40.772773" lon="-77.887498"><ele>366.2</ele></trkpt><trkpt lat="40.772439" lon="-77.887569"><ele>367</ele></trkpt><trkpt lat="40.772135" lon="-77.887597"><ele>367.7</ele></trkpt><trkpt lat="40.771298" lon="-77.887603"><ele>370.1</ele></trkpt><trkpt lat="40.77049" lon="-77.887468"><ele>372</ele></trkpt><trkpt lat="40.769928" lon="-77.887293"><ele>372.9</ele></trkpt><trkpt lat="40.769366" lon="-77.887064"><ele>373.7</ele></trkpt><trkpt lat="40.768823" lon="-77.886765"><ele>374.3</ele></trkpt><trkpt lat="40.768323" lon="-77.886422"><ele>374.9</ele></trkpt><trkpt lat="40.768113" lon="-77.886243"><ele>375.2</ele></trkpt><trkpt lat="40.767656" lon="-77.885828"><ele>375.9</ele></trkpt><trkpt lat="40.766097" lon="-77.884221"><ele>376.2</ele></trkpt><trkpt lat="40.765782" lon="-77.883901"><ele>376.5</ele></trkpt><trkpt lat="40.762716" lon="-77.880788"><ele>381.7</ele></trkpt><trkpt lat="40.76126" lon="-77.87933"><ele>384.1</ele></trkpt><trkpt lat="40.759948" lon="-77.877976"><ele>382.6</ele></trkpt><trkpt lat="40.759927" lon="-77.877955"><ele>382.4</ele></trkpt></trkseg></trk></gpx>